{"version": 0.6, "generator": "Overpass API 0.7.61.5 4133829e", "osm3s": {"timestamp_osm_base": "2024-03-14T19:46:33Z", "copyright": "The data included in this document is from www.openstreetmap.org. The data is made available under ODbL."}, "elements": [{"type": "node", "id": 1081851579, "lat": 41.6313563, "lon": 41.6176424}, {"type": "node", "id": 1399606410, "lat": 41.6373404, "lon": 41.6708667}, {"type": "node", "id": 1430115884, "lat": 41.6001564, "lon": 41.9392013, "tags": {"amenity": "dentist", "healthcare": "dentist", "source": "JumpStart International"}}, {"type": "node", "id": 1430118462, "lat": 41.8362988, "lon": 41.7799833, "tags": {"amenity": "dentist", "healthcare": "dentist", "name": "\u10e3\u10dc\u10d8\u10d5\u10d4\u10e0\u10e1\u10d0\u10da \u10d3\u10d4\u10dc\u10e2\u10d8", "name:en": "Universal Dent", "name:ka": "\u10e3\u10dc\u10d8\u10d5\u10d4\u10e0\u10e1\u10d0\u10da \u10d3\u10d4\u10dc\u10e2\u10d8", "source": "JumpStart International"}}, {"type": "node", "id": 1430118838, "lat": 41.8110947, "lon": 41.7746952, "tags": {"amenity": "hospital", "healthcare": "hospital", "source": "JumpStart International"}}, {"type": "node", "id": 1430119448, "lat": 41.8207708, "lon": 41.7786504, "tags": {"amenity": "veterinary", "check_date": "2023-04-07", "source": "JumpStart International"}}, {"type": "node", "id": 1430119533, "lat": 41.821357, "lon": 41.7783205, "tags": {"amenity": "dentist", "check_date": "2023-04-07", "healthcare": "dentist", "source": "JumpStart International"}}, {"type": "node", "id": 1430119693, "lat": 41.8300413, "lon": 41.779118, "tags": {"amenity": "dentist", "healthcare": "dentist", "source": "JumpStart International"}}, {"type": "node", "id": 1430125109, "lat": 41.7075309, "lon": 41.7579631, "tags": {"amenity": "dentist", "source": "JumpStart International"}}, {"type": "node", "id": 1430129650, "lat": 41.7187634, "lon": 41.7337691, "tags": {"amenity": "dentist", "check_date": "2023-02-06", "source": "JumpStart International"}}, {"type": "node", "id": 1430139487, "lat": 41.5707119, "lon": 41.6669783, "tags": {"amenity": "veterinary", "name": "\u10d5\u10d4\u10e2\u10d4\u10e0\u10d8\u10dc\u10d0\u10e0\u10d8 (Veterinarian)", "name:en": "Veterinarian", "name:ka": "\u10d5\u10d4\u10e2\u10d4\u10e0\u10d8\u10dc\u10d0\u10e0\u10d8", "source": "JumpStart International"}}, {"type": "node", "id": 1430149100, "lat": 41.6426793, "lon": 41.656994, "tags": {"addr:street": "\u10db\u10d0\u10d8\u10d0\u10d9\u10dd\u10d5\u10e1\u10d9\u10d8\u10e1 \u10e5\u10e3\u10e9\u10d0", "amenity": "dentist", "check_date": "2023-02-24", "healthcare": "dentist", "name": "\u10d2\u10d4\u10da\u10d0 \u10d3\u10e3\u10db\u10d1\u10d0\u10eb\u10d8\u10e1 \u10d9\u10da\u10d8\u10dc\u10d8\u10d9\u10d0", "name:en": "Dentist Clinic Gela Dumbadze", "name:ru": "\u0421\u0442\u043e\u043c\u0430\u0442\u043e\u043b\u043e\u0433\u0438\u0447\u0435\u0441\u043a\u043e\u0439 \u041a\u043b\u0438\u043d\u0438\u043a\u0430 \u0413\u0435\u043b\u0430 \u0414\u0443\u043c\u0431\u0430\u0434\u0437\u0435", "source": "JumpStart International"}}, {"type": "node", "id": 1430149113, "lat": 41.6428607, "lon": 41.6546139, "tags": {"amenity": "dentist", "healthcare": "dentist", "source": "JumpStart International"}}, {"type": "node", "id": 1430151048, "lat": 41.6254845, "lon": 41.6177622, "tags": {"amenity": "dentist", "check_date": "2022-11-23", "contact:email": "dentaclass444@gmail.com", "contact:facebook": "https://facebook.com/dentaclasss", "contact:instagram": "https://instagram.com/dentaclassclinic", "healthcare": "dentist", "name": "\u10d3\u10d4\u10dc\u10e2\u10d0\u10da-\u10d9\u10da\u10d0\u10e1\u10d8", "name:en": "Denta-Class", "name:ka": "\u10d3\u10d4\u10dc\u10e2\u10d0\u10da-\u10d9\u10da\u10d0\u10e1\u10d8", "source": "JumpStart International"}}, {"type": "node", "id": 1430151316, "lat": 41.6229265, "lon": 41.62472, "tags": {"amenity": "dentist", "healthcare": "dentist", "source": "JumpStart International"}}, {"type": "node", "id": 1430151445, "lat": 41.6252341, "lon": 41.6181719, "tags": {"amenity": "dentist", "check_date": "2022-11-23", "healthcare": "dentist", "source": "JumpStart International"}}, {"type": "node", "id": 1430155835, "lat": 41.6350866, "lon": 41.6152169, "tags": {"amenity": "dentist", "check_date": "2022-09-16", "healthcare": "dentist", "level": "0", "name": "\u10e2\u10d0\u10e4\u10da-\u10d3\u10d4\u10dc\u10e2", "name:en": "Tafl-Dent", "name:ka": "\u10e2\u10d0\u10e4\u10da-\u10d3\u10d4\u10dc\u10e2", "source": "JumpStart International", "wheelchair": "no"}}, {"type": "node", "id": 1430156121, "lat": 41.6388823, "lon": 41.6214241, "tags": {"amenity": "dentist", "check_date": "2022-11-06", "healthcare": "dentist", "source": "JumpStart International"}}, {"type": "node", "id": 1430157853, "lat": 41.633348, "lon": 41.6316975, "tags": {"amenity": "dentist", "check_date": "2022-12-13", "contact:facebook": "https://www.facebook.com/%E1%83%A1%E1%83%A2%E1%83%9D%E1%83%9B%E1%83%90%E1%83%A2%E1%83%9D%E1%83%9A%E1%83%9D%E1%83%92%E1%83%98%E1%83%A3%E1%83%A0%E1%83%98-%E1%83%99%E1%83%9A%E1%83%98%E1%83%9C%E1%83%98%E1%83%99%E1%83%90-Dental-Art-1553653978188688", "healthcare": "dentist", "name": "\u10d3\u10d4\u10dc\u10e2\u10d0\u10da \u10d0\u10e0\u10e2\u10d8", "name:en": "Dental Art", "name:ka": "\u10d3\u10d4\u10dc\u10e2\u10d0\u10da \u10d0\u10e0\u10e2\u10d8"}}, {"type": "node", "id": 1430158128, "lat": 41.6365127, "lon": 41.6301445, "tags": {"addr:housenumber": "101", "addr:street": "\u10d0\u10d9\u10d0\u10d3\u10d4\u10db\u10d8\u10d9\u10dd\u10e1 \u10db\u10d0\u10db\u10d8\u10d0 \u10d9\u10dd\u10db\u10d0\u10ee\u10d8\u10eb\u10d8\u10e1 \u10e5\u10e3\u10e9\u10d0", "amenity": "dentist", "check_date": "2023-01-06", "healthcare": "dentist", "source": "JumpStart International"}}, {"type": "node", "id": 1430158180, "lat": 41.6397099, "lon": 41.6371432, "tags": {"amenity": "dentist", "healthcare": "dentist", "source": "JumpStart International"}}, {"type": "node", "id": 1430158184, "lat": 41.6398007, "lon": 41.634834, "tags": {"amenity": "dentist", "check_date": "2023-01-08", "healthcare": "dentist", "name": "\u10db\u10d0\u10d8\u10d0 \u10d3\u10d4\u10dc\u10e2\u10d8", "name:en": "Naia Dent", "name:ka": "\u10db\u10d0\u10d8\u10d0 \u10d3\u10d4\u10dc\u10e2\u10d8", "phone": "+995 558 78 02 07", "source": "JumpStart International"}}, {"type": "node", "id": 1430574102, "lat": 41.644178, "lon": 41.6445527, "tags": {"amenity": "dentist", "check_date": "2022-11-30", "healthcare": "dentist", "source": "JumpStart International"}}, {"type": "node", "id": 1430574248, "lat": 41.6488481, "lon": 41.6435603, "tags": {"addr:city": "\u10d1\u10d0\u10d7\u10e3\u10db\u10d8", "addr:country": "GE", "addr:housenumber": "6", "addr:postcode": "6000", "addr:street": "\u10ed\u10d0\u10d1\u10e3\u10d0 \u10d0\u10db\u10d8\u10e0\u10d4\u10ef\u10d8\u10d1\u10d8\u10e1 \u10e5\u10e3\u10e9\u10d0", "amenity": "dentist", "check_date": "2022-11-06", "healthcare": "dentist", "name": "\u10d2\u10e3\u10da\u10e3 \u10d3\u10d4\u10dc\u10e2\u10d8 \u10d2\u10e3\u10da\u10d8", "name:en": "Guli Denta Guli", "name:ka": "\u10d2\u10e3\u10da\u10e3 \u10d3\u10d4\u10dc\u10e2\u10d8 \u10d2\u10e3\u10da\u10d8", "source": "JumpStart International"}}, {"type": "node", "id": 1430578095, "lat": 41.6402056, "lon": 41.6230947}, {"type": "node", "id": 1430578102, "lat": 41.6399301, "lon": 41.622886, "tags": {"amenity": "dentist", "check_date": "2022-11-06", "healthcare": "dentist"}}, {"type": "node", "id": 1430578178, "lat": 41.6415482, "lon": 41.6252075, "tags": {"amenity": "dentist", "check_date": "2022-11-13", "healthcare": "dentist", "name": "\u10d7.\u10d2. \u10d3\u10d4\u10dc\u10e2\u10d0\u10da\u10d8", "name:en": "T.G. Dental", "name:ka": "\u10d7.\u10d2. \u10d3\u10d4\u10dc\u10e2\u10d0\u10da\u10d8"}}, {"type": "node", "id": 1430578203, "lat": 41.6441977, "lon": 41.6258343, "tags": {"addr:housenumber": "154", "addr:street": "\u10e4\u10d0\u10e0\u10dc\u10d0\u10d5\u10d0\u10d6 \u10db\u10d4\u10e4\u10d8\u10e1 \u10e5\u10e3\u10e9\u10d0", "amenity": "veterinary", "check_date": "2022-12-21", "name": "\u10d6\u10dd\u10dd \u10de\u10da\u10d0\u10d6\u10d0", "name:en": "Zoo Plaza", "name:ka": "\u10d6\u10dd\u10dd \u10de\u10da\u10d0\u10d6\u10d0"}}, {"type": "node", "id": 1430578237, "lat": 41.6401599, "lon": 41.625432, "tags": {"amenity": "dentist", "check_date": "2023-07-02", "healthcare": "dentist", "name": "Universal", "source": "JumpStart International"}}, {"type": "node", "id": 1430578306, "lat": 41.6440797, "lon": 41.6252778, "tags": {"amenity": "dentist", "check_date": "2023-04-09", "contact:facebook": "https://www.facebook.com/NegaDent", "healthcare": "dentist", "name": "\u10dc\u10d4\u10d2\u10d0 \u10d3\u10d4\u10dc\u10e2\u10d8", "name:en": "Nega Dent", "name:ka": "\u10dc\u10d4\u10d2\u10d0 \u10d3\u10d4\u10dc\u10e2\u10d8", "source": "JumpStart International"}}, {"type": "node", "id": 1430584280, "lat": 41.6401907, "lon": 41.6280566, "tags": {"amenity": "dentist", "check_date": "2022-11-13", "healthcare": "dentist"}}, {"type": "node", "id": 1430584282, "lat": 41.6431242, "lon": 41.6372168, "tags": {"amenity": "dentist", "check_date": "2023-01-12", "healthcare": "dentist"}}, {"type": "node", "id": 1430584441, "lat": 41.6423081, "lon": 41.6274992, "tags": {"amenity": "dentist", "check_date": "2022-10-04", "healthcare": "dentist", "level": "0", "name": "\u10dc\u10d0\u10e2\u10dd \u10d2\u10e3\u10d2\u10e3\u10ea\u10d8\u10eb\u10d4 \u10e1\u10e2\u10dd\u10db\u10d0\u10e2\u10dd\u10da\u10dd\u10d2\u10d8\u10e3\u10e0\u10d8 \u10d9\u10da\u10d8\u10dc\u10d8\u10d9\u10d0", "name:en": "Dental Clinic Nato Gugutsidze", "name:ka": "\u10dc\u10d0\u10e2\u10dd \u10d2\u10e3\u10d2\u10e3\u10ea\u10d8\u10eb\u10d4 \u10e1\u10e2\u10dd\u10db\u10d0\u10e2\u10dd\u10da\u10dd\u10d2\u10d8\u10e3\u10e0\u10d8 \u10d9\u10da\u10d8\u10dc\u10d8\u10d9\u10d0", "wheelchair": "yes"}}, {"type": "node", "id": 1430584648, "lat": 41.6440159, "lon": 41.6322576, "tags": {"addr:housenumber": "30", "addr:street": "\u10de\u10d4\u10e2\u10e0\u10d4\u00a0\u10db\u10d4\u10da\u10d8\u10e5\u10d8\u10e8\u10d5\u10d8\u10da\u10d8\u10e1\u00a0\u10e5\u10e3\u10e9\u10d0", "amenity": "dentist", "check_date": "2022-10-29", "healthcare": "dentist", "name": "\u10d1\u10d4\u10dc\u10d8 \u10d3\u10d4\u10dc\u10e2\u10d8", "name:en": "Beni Dent", "name:ka": "\u10d1\u10d4\u10dc\u10d8 \u10d3\u10d4\u10dc\u10e2\u10d8", "payment:mastercard": "yes", "payment:visa": "yes", "source": "JumpStart International", "wheelchair": "no"}}, {"type": "node", "id": 1430584655, "lat": 41.6446684, "lon": 41.6379499, "tags": {"amenity": "dentist", "check_date": "2022-11-13", "healthcare": "dentist", "name": "\u10d3\u10d4\u10dc\u10e2\u10d0\u10da \u10ea\u10d4\u10dc\u10e2\u10e0\u10d8 \u10db\u10d4\u10d3\u10d8\u10e1\u10dd\u10dc\u10d8", "name:en": "Medison Dental Center", "name:ka": "\u10d3\u10d4\u10dc\u10e2\u10d0\u10da \u10ea\u10d4\u10dc\u10e2\u10e0\u10d8 \u10db\u10d4\u10d3\u10d8\u10e1\u10dd\u10dc\u10d8", "source": "JumpStart International", "website": "https://dentalmedison.ge/"}}, {"type": "node", "id": 1430584661, "lat": 41.644597, "lon": 41.6341517, "tags": {"amenity": "dentist", "healthcare": "dentist", "name": "\u10d4\u10e3\u10d6\u10d0 \u10d3\u10d4\u10dc\u10e2\u10d8", "name:en": "Euza Dent", "name:ka": "\u10d4\u10e3\u10d6\u10d0 \u10d3\u10d4\u10dc\u10e2\u10d8", "source": "JumpStart International"}}, {"type": "node", "id": 1430584701, "lat": 41.6438572, "lon": 41.6346961, "tags": {"amenity": "dentist", "check_date": "2023-01-09", "contact:facebook": "https://facebook.com/newdentXXI", "contact:instagram": "https://instagram.com/new_dent_xxi", "contact:phone": "+995 577 210004", "healthcare": "dentist", "name": "\u10dc\u10d8\u10e3 \u10d3\u10d4\u10dc\u10e2 XXI", "name:en": "New Dent XXI", "name:ka": "\u10dc\u10d8\u10e3 \u10d3\u10d4\u10dc\u10e2 XXI", "source": "JumpStart International"}}, {"type": "node", "id": 1430587767, "lat": 41.645841, "lon": 41.6382517, "tags": {"addr:housenumber": "36", "addr:street": "\u10d8\u10da\u10d8\u10d0 \u10ed\u10d0\u10d5\u10ed\u10d0\u10d5\u10d0\u10eb\u10d8\u10e1 \u10e5\u10e3\u10e9\u10d0", "amenity": "dentist", "check_date": "2022-11-12", "healthcare": "dentist", "name": "\u10de\u10e0\u10d0\u10d8\u10db-\u10d3\u10d4\u10dc\u10e2", "name:en": "Prime Dent", "name:ka": "\u10de\u10e0\u10d0\u10d8\u10db-\u10d3\u10d4\u10dc\u10e2"}}, {"type": "node", "id": 1430587770, "lat": 41.6463393, "lon": 41.6335861, "tags": {"amenity": "dentist", "check_date": "2022-10-22", "healthcare": "dentist", "level": "0", "name": "\u10e1\u10dd\u10da\u10dd \u10d0\u10d8\u10e1\u10d8", "name:en": "SOLO ice", "name:ka": "\u10e1\u10dd\u10da\u10dd \u10d0\u10d8\u10e1\u10d8", "source": "JumpStart International", "wheelchair": "no"}}, {"type": "node", "id": 1430587815, "lat": 41.6435486, "lon": 41.6385791, "tags": {"amenity": "dentist", "check_date": "2022-11-13", "healthcare": "dentist", "name": "\u10e5\u10d0\u10db\u10d0\u10d3\u10d0\u10eb\u10d8\u10e1 \u10e1\u10e2\u10dd\u10db\u10d0\u10e2\u10dd\u10da\u10dd\u10d2\u10d8\u10e3\u10e0\u10d8 \u10d9\u10da\u10d8\u10dc\u10d8\u10d9\u10d0", "name:en": "Kamadadze Dental Clinic", "name:ka": "\u10e5\u10d0\u10db\u10d0\u10d3\u10d0\u10eb\u10d8\u10e1 \u10e1\u10e2\u10dd\u10db\u10d0\u10e2\u10dd\u10da\u10dd\u10d2\u10d8\u10e3\u10e0\u10d8 \u10d9\u10da\u10d8\u10dc\u10d8\u10d9\u10d0", "source": "JumpStart International"}}, {"type": "node", "id": 1430596278, "lat": 41.6481033, "lon": 41.6368629, "tags": {"amenity": "dentist", "check_date": "2022-10-22", "healthcare": "dentist", "name": "\u10de\u10e0\u10d0\u10e3\u10db \u10d3\u10d4\u10dc\u10e2", "name:en": "Prime Dent", "name:ka": "\u10de\u10e0\u10d0\u10e3\u10db \u10d3\u10d4\u10dc\u10e2", "source": "JumpStart International"}}, {"type": "node", "id": 1430596469, "lat": 41.6509717, "lon": 41.6383392, "tags": {"addr:city": "\u10d1\u10d0\u10d7\u10e3\u10db\u10d8", "addr:country": "GE", "addr:housenumber": "24", "addr:street": "\u10d0\u10ee\u10db\u10d4\u10d3 \u10db\u10d4\u10da\u10d0\u10e8\u10d5\u10d8\u10da\u10d8\u10e1 \u10e5\u10e3\u10e9\u10d0", "amenity": "dentist", "check_date": "2022-10-29", "healthcare": "dentist", "level": "0", "name": "\u10e1\u10e2\u10dd\u10db\u10d0 \u10d3\u10d4\u10dc\u10e2\u10d8", "name:en": "Stoma Dent", "name:ka": "\u10e1\u10e2\u10dd\u10db\u10d0 \u10d3\u10d4\u10dc\u10e2\u10d8", "payment:credit_cards": "yes", "payment:debit_cards": "yes", "source": "JumpStart International", "wheelchair": "no"}}, {"type": "node", "id": 1857029318, "lat": 41.6360344, "lon": 41.6714612}, {"type": "node", "id": 2371166859, "lat": 41.5915826, "lon": 41.6471745}, {"type": "node", "id": 2371166861, "lat": 41.5916712, "lon": 41.647319}, {"type": "node", "id": 2371166863, "lat": 41.5918646, "lon": 41.6467553}, {"type": "node", "id": 2371166865, "lat": 41.5919049, "lon": 41.646821}, {"type": "node", "id": 2371166872, "lat": 41.5921308, "lon": 41.6464633}, {"type": "node", "id": 2371166885, "lat": 41.5922597, "lon": 41.6466735}, {"type": "node", "id": 3002696969, "lat": 41.6497285, "lon": 41.6305863}, {"type": "node", "id": 3002696971, "lat": 41.6498215, "lon": 41.6308179}, {"type": "node", "id": 3002696974, "lat": 41.6499279, "lon": 41.6306797}, {"type": "node", "id": 3002696975, "lat": 41.6499471, "lon": 41.6307275}, {"type": "node", "id": 3002696977, "lat": 41.6500359, "lon": 41.6306019}, {"type": "node", "id": 3002696979, "lat": 41.6501838, "lon": 41.6302585}, {"type": "node", "id": 3002696980, "lat": 41.6502034, "lon": 41.6310184}, {"type": "node", "id": 3002696981, "lat": 41.6502228, "lon": 41.6307213}, {"type": "node", "id": 3002696982, "lat": 41.6502557, "lon": 41.6305986}, {"type": "node", "id": 3002696983, "lat": 41.6502866, "lon": 41.6306754}, {"type": "node", "id": 3002696984, "lat": 41.650306, "lon": 41.6305624}, {"type": "node", "id": 3002696985, "lat": 41.6503111, "lon": 41.6309408}, {"type": "node", "id": 3034259341, "lat": 41.7210954, "lon": 41.7330523}, {"type": "node", "id": 3034259943, "lat": 41.7210883, "lon": 41.7329276}, {"type": "node", "id": 3034291835, "lat": 41.7206903, "lon": 41.7329256}, {"type": "node", "id": 3034300835, "lat": 41.7209116, "lon": 41.7332085}, {"type": "node", "id": 3296642527, "lat": 41.6426538, "lon": 41.6348789}, {"type": "node", "id": 3296642528, "lat": 41.6423275, "lon": 41.6351165}, {"type": "node", "id": 3296642529, "lat": 41.642472, "lon": 41.6356049}, {"type": "node", "id": 3296642530, "lat": 41.642735, "lon": 41.6354143}, {"type": "node", "id": 3296642533, "lat": 41.6426704, "lon": 41.6352277}, {"type": "node", "id": 3296642534, "lat": 41.6425653, "lon": 41.6352909}, {"type": "node", "id": 3296642535, "lat": 41.6425371, "lon": 41.6352125}, {"type": "node", "id": 3296642536, "lat": 41.6427071, "lon": 41.635055}, {"type": "node", "id": 3298398094, "lat": 41.6268301, "lon": 41.6218706}, {"type": "node", "id": 3298398095, "lat": 41.6268117, "lon": 41.6220641}, {"type": "node", "id": 3298398096, "lat": 41.6267474, "lon": 41.6220532}, {"type": "node", "id": 3298398097, "lat": 41.6266622, "lon": 41.6224861}, {"type": "node", "id": 3298398098, "lat": 41.6267732, "lon": 41.6225049}, {"type": "node", "id": 3298398099, "lat": 41.6267618, "lon": 41.6226247}, {"type": "node", "id": 3298398100, "lat": 41.626545, "lon": 41.6225879}, {"type": "node", "id": 3298398101, "lat": 41.6266166, "lon": 41.6218343}, {"type": "node", "id": 4112079456, "lat": 41.633672, "lon": 41.6250848}, {"type": "node", "id": 4112079458, "lat": 41.6337296, "lon": 41.6252902}, {"type": "node", "id": 4112079459, "lat": 41.6337852, "lon": 41.6254865}, {"type": "node", "id": 4112079462, "lat": 41.6338507, "lon": 41.6257199}, {"type": "node", "id": 4112079464, "lat": 41.633847, "lon": 41.6249968}, {"type": "node", "id": 4112079470, "lat": 41.6340261, "lon": 41.6256318}, {"type": "node", "id": 4112080352, "lat": 41.6335492, "lon": 41.6253809}, {"type": "node", "id": 4112080354, "lat": 41.6336044, "lon": 41.6255774}, {"type": "node", "id": 4119438300, "lat": 41.6389126, "lon": 41.62429}, {"type": "node", "id": 4119438489, "lat": 41.6394082, "lon": 41.6257532}, {"type": "node", "id": 4119438507, "lat": 41.6402407, "lon": 41.6236784}, {"type": "node", "id": 4119438509, "lat": 41.6402878, "lon": 41.6237491}, {"type": "node", "id": 4119438511, "lat": 41.6403416, "lon": 41.6236851}, {"type": "node", "id": 4119438514, "lat": 41.640403, "lon": 41.6234854}, {"type": "node", "id": 4119438515, "lat": 41.6404032, "lon": 41.6239229}, {"type": "node", "id": 4119438517, "lat": 41.6404492, "lon": 41.6239922}, {"type": "node", "id": 4119438519, "lat": 41.6404571, "lon": 41.6238589}, {"type": "node", "id": 4119438526, "lat": 41.640613, "lon": 41.6237966}, {"type": "node", "id": 4119438534, "lat": 41.6409051, "lon": 41.624054}, {"type": "node", "id": 4123431867, "lat": 41.6403139, "lon": 41.6284667}, {"type": "node", "id": 4123431870, "lat": 41.6403746, "lon": 41.6286826}, {"type": "node", "id": 4123431871, "lat": 41.6404462, "lon": 41.6284276}, {"type": "node", "id": 4123431876, "lat": 41.6405086, "lon": 41.6286152}, {"type": "node", "id": 4126445672, "lat": 41.6424477, "lon": 41.6350306}, {"type": "node", "id": 4126446396, "lat": 41.6424933, "lon": 41.6349462}, {"type": "node", "id": 4185078665, "lat": 41.6398144, "lon": 41.6333399}, {"type": "node", "id": 4185078668, "lat": 41.6398955, "lon": 41.6335819}, {"type": "node", "id": 4185078686, "lat": 41.6401027, "lon": 41.6334575}, {"type": "node", "id": 4235011524, "lat": 41.6449277, "lon": 41.6289437, "tags": {"addr:city": "\u10d1\u10d0\u10d7\u10e3\u10db\u10d8", "addr:country": "GE", "addr:housenumber": "121", "addr:street": "\u10e4\u10d0\u10e0\u10dc\u10d0\u10d5\u10d0\u10d6 \u10db\u10d4\u10e4\u10d8\u10e1 \u10e5\u10e3\u10e9\u10d0", "amenity": "dentist", "check_date": "2022-10-22", "healthcare": "dentist", "name": "\u10e1\u10d0\u10dc\u10d0\u10e0\u10d4", "name:en": "Sanare", "name:ka": "\u10e1\u10d0\u10dc\u10d0\u10e0\u10d4", "opening_hours": "Mo-Su 10:00-20:00", "phone": "+995 571 54 31 31"}}, {"type": "node", "id": 4397122963, "lat": 41.6479246, "lon": 41.6387287, "tags": {"amenity": "dentist", "check_date": "2022-10-21", "healthcare": "dentist", "level": "0", "name": "\u10db\u10d0\u10d8 \u10d3\u10d4\u10dc\u10e2", "name:en": "My Dent", "name:ka": "\u10db\u10d0\u10d8 \u10d3\u10d4\u10dc\u10e2", "opening_hours": "Mo-Sa 10:00-20:00; Su off", "payment:mastercard": "yes", "payment:visa": "yes", "website": "https://mydent-ge.com", "wheelchair": "no"}}, {"type": "node", "id": 4641914790, "lat": 41.6441493, "lon": 41.6336732, "tags": {"addr:housenumber": "40", "addr:postcode": "6010", "addr:street": "\u10d8\u10da\u10d8\u10d0 \u10ed\u10d0\u10d5\u10ed\u10d0\u10d5\u10d0\u10eb\u10d8\u10e1 \u10e5\u10e3\u10e9\u10d0", "amenity": "dentist", "check_date": "2022-10-29", "email": "vipdentbatumi@gmail.com", "healthcare": "dentist", "name": "VIP Dent", "name:en": "VIP Dent", "opening_hours": "Mo-Su 09:00-23:00", "phone": "557936555"}}, {"type": "node", "id": 4916809121, "lat": 41.6285806, "lon": 41.6161655, "tags": {"amenity": "clinic", "contact:phone": "+995 514 999494", "contact:website": "https://mhc.ge", "healthcare": "clinic", "healthcare:speciality": "child_psychiatry", "name": "\u10d2\u10d0\u10db\u10db\u10d0", "name:en": "Gamma", "official_name": "\u10db\u10d4\u10dc\u10e2\u10d0\u10da\u10e3\u10e0\u10d8 \u10ef\u10d0\u10db\u10e0\u10d7\u10d4\u10da\u10dd\u10d1\u10d8\u10e1 \u10ea\u10d4\u10dc\u10e2\u10e0\u10d8 \u10d2\u10d0\u10db\u10db\u10d0", "official_name:en": "Mental Health Center"}}, {"type": "node", "id": 5064196321, "lat": 41.5780539, "lon": 41.6587756, "tags": {"addr:housenumber": "336", "addr:postcode": "6400", "addr:street": "fridon khalvashi ave", "amenity": "clinic", "fixme": "position", "name": "dental clinik", "name:en": "dental clinik", "name:ru": "\u0441\u0442\u043e\u043c\u0430\u0442\u043e\u043b\u043e\u0433\u0438\u0447\u0435\u0441\u043a\u0438\u0439 \u043a\u043e\u0431\u0438\u043d\u0435\u0442", "name:tr": "dental clinik", "opening_hours": "Mo-Sa 10:00-14:00, 15:00-20:00; Su 10:00-20:00", "operator": "imeda kakhadze", "phone": "593901701"}}, {"type": "node", "id": 5161741021, "lat": 41.6267253, "lon": 41.6222855}, {"type": "node", "id": 5161741022, "lat": 41.626682, "lon": 41.6222781}, {"type": "node", "id": 5236156421, "lat": 41.6418701, "lon": 41.6224692}, {"type": "node", "id": 5236156422, "lat": 41.6419833, "lon": 41.6226875}, {"type": "node", "id": 5236156423, "lat": 41.6418063, "lon": 41.622869}, {"type": "node", "id": 5236156424, "lat": 41.641695, "lon": 41.622632}, {"type": "node", "id": 5905951974, "lat": 41.6425443, "lon": 41.6174978, "tags": {"addr:city": "\u10d1\u10d0\u10d7\u10e3\u10db\u10d8", "addr:country": "GE", "addr:housenumber": "96", "addr:postcode": "6000", "addr:street": "\u10d6\u10e3\u10e0\u10d0\u10d1 \u10d2\u10dd\u10e0\u10d2\u10d8\u10da\u10d0\u10eb\u10d8\u10e1 \u10e5\u10e3\u10e9\u10d0", "amenity": "clinic", "check_date": "2022-11-04", "email": "batumi@amcenters.com", "emergency": "yes", "healthcare": "hospital", "healthcare:speciality": "general;ophthalmology;paediatrics;otolaryngology;dermatology;radiology;internal;urology", "level": "0", "name": "\u10d0\u10db\u10d4\u10e0\u10d8\u10d9\u10e3\u10da\u10d8 \u10e1\u10d0\u10db\u10d4\u10d3\u10d8\u10ea\u10d8\u10dc\u10dd \u10ea\u10d4\u10dc\u10e2\u10e0\u10d8", "name:en": "American Medical Centers Batumi", "name:ka": "\u10d0\u10db\u10d4\u10e0\u10d8\u10d9\u10e3\u10da\u10d8 \u10e1\u10d0\u10db\u10d4\u10d3\u10d8\u10ea\u10d8\u10dc\u10dd \u10ea\u10d4\u10dc\u10e2\u10e0\u10d8", "operator:type": "private", "phone": "+995 32 250 00 77", "website": "https://www.amcenters.com/", "wheelchair": "no"}}, {"type": "node", "id": 6028138252, "lat": 41.6445114, "lon": 41.6296966, "tags": {"addr:street": "\u10d5\u10d0\u10ee\u10e2\u10d0\u10dc\u10d2 \u10d2\u10dd\u10e0\u10d2\u10d0\u10e1\u10d0\u10da\u10d8\u10e1 \u10e5\u10e3\u10e9\u10d0", "amenity": "clinic", "check_date": "2022-10-14", "healthcare": "clinic", "level": "0", "name": "\u10e1\u10db\u10d0\u10d8\u10da\u10d8", "name:en": "Smile", "name:ka": "\u10e1\u10db\u10d0\u10d8\u10da\u10d8", "wheelchair": "no"}}, {"type": "node", "id": 6331653596, "lat": 41.6314384, "lon": 41.6184425}, {"type": "node", "id": 6331653597, "lat": 41.6314103, "lon": 41.6182655}, {"type": "node", "id": 6331653598, "lat": 41.6313662, "lon": 41.6181448}, {"type": "node", "id": 6331653599, "lat": 41.6312558, "lon": 41.6179787}, {"type": "node", "id": 6602454086, "lat": 41.6427203, "lon": 41.6289748, "tags": {"addr:housenumber": "20", "addr:street": "\u10e1\u10d4\u10da\u10d8\u10db \u10ee\u10d8\u10db\u10e8\u10d8\u10d0\u10e8\u10d5\u10d8\u10da\u10d8\u10e1 \u10e5\u10e3\u10e9\u10d0", "amenity": "hospital", "check_date": "2022-10-04", "email": "info-evex@evex.ge", "healthcare": "hospital", "level": "0", "name": "\u10d4\u10d5\u10d4\u10e5\u10e1\u10d8", "name:en": "Evex", "name:ka": "\u10d4\u10d5\u10d4\u10e5\u10e1\u10d8", "operator:type": "private", "phone": "+995322550505", "website": "https://evexhospitals.ge", "wheelchair": "yes"}}, {"type": "node", "id": 6712444785, "lat": 41.821376, "lon": 41.7750321, "tags": {"amenity": "dentist", "healthcare": "dentist"}}, {"type": "node", "id": 6738320685, "lat": 41.8063593, "lon": 41.7766281}, {"type": "node", "id": 7244716173, "lat": 41.6313114, "lon": 41.6177788}, {"type": "node", "id": 7244716174, "lat": 41.6314401, "lon": 41.6175113}, {"type": "node", "id": 7257350802, "lat": 41.6366264, "lon": 41.670669}, {"type": "node", "id": 7347329833, "lat": 41.6478341, "lon": 41.668547}, {"type": "node", "id": 7347329834, "lat": 41.6481059, "lon": 41.6689286}, {"type": "node", "id": 7347329835, "lat": 41.648287, "lon": 41.668683}, {"type": "node", "id": 7347329836, "lat": 41.6483643, "lon": 41.6687834}, {"type": "node", "id": 7347329837, "lat": 41.6484461, "lon": 41.6686761}, {"type": "node", "id": 7347329838, "lat": 41.6485427, "lon": 41.6688043}, {"type": "node", "id": 7347329839, "lat": 41.6484164, "lon": 41.668982}, {"type": "node", "id": 7347329840, "lat": 41.6485682, "lon": 41.6690509}, {"type": "node", "id": 7347329841, "lat": 41.6484967, "lon": 41.6693252}, {"type": "node", "id": 7347329842, "lat": 41.6480577, "lon": 41.6701179}, {"type": "node", "id": 7347329843, "lat": 41.6473896, "lon": 41.6691412}, {"type": "node", "id": 7356734558, "lat": 41.6477518, "lon": 41.6696748, "tags": {"barrier": "gate"}}, {"type": "node", "id": 7356734560, "lat": 41.647697, "lon": 41.6695919}, {"type": "node", "id": 7356734561, "lat": 41.647722, "lon": 41.6696305}, {"type": "node", "id": 7397763588, "lat": 41.6396214, "lon": 41.6649486}, {"type": "node", "id": 7397763590, "lat": 41.6403681, "lon": 41.6643509}, {"type": "node", "id": 7397763591, "lat": 41.6402484, "lon": 41.6649951}, {"type": "node", "id": 7397763592, "lat": 41.6399819, "lon": 41.6650945}, {"type": "node", "id": 7397763593, "lat": 41.6398787, "lon": 41.6650413}, {"type": "node", "id": 7440342128, "lat": 41.6362038, "lon": 41.672345}, {"type": "node", "id": 7440342130, "lat": 41.6369855, "lon": 41.6725757}, {"type": "node", "id": 7649813545, "lat": 41.6457739, "lon": 41.640148, "tags": {"addr:housenumber": "19", "addr:street": "\u10d8\u10da\u10d8\u10d0 \u10ed\u10d0\u10d5\u10ed\u10d0\u10d5\u10d0\u10eb\u10d8\u10e1 \u10e5\u10e3\u10e9\u10d0", "amenity": "veterinary", "check_date": "2022-11-12", "contact:facebook": "https://www.facebook.com/vetofficegeorgia/"}}, {"type": "node", "id": 8376683912, "lat": 41.6397023, "lon": 41.6225736, "tags": {"amenity": "veterinary", "check_date": "2022-11-06", "name": "My Friend", "opening_hours": "10:00-21:00", "payment:credit_cards": "yes", "payment:debit_cards": "yes", "shop": "pet"}}, {"type": "node", "id": 8733719217, "lat": 41.6431566, "lon": 41.6298573, "tags": {"amenity": "clinic", "check_date": "2022-10-29", "healthcare": "clinic", "level": "0", "name": "NeoLab", "opening_hours": "Mo-Fr 09:00-17:30; Sa 10:00-15:30; Su off", "website": "https://neolab.ge", "wheelchair": "no"}}, {"type": "node", "id": 8741136039, "lat": 41.631311, "lon": 41.6180371}, {"type": "node", "id": 8741136054, "lat": 41.6315292, "lon": 41.6174022}, {"type": "node", "id": 8741136060, "lat": 41.6315213, "lon": 41.6193041}, {"type": "node", "id": 8741136061, "lat": 41.6323863, "lon": 41.6183491}, {"type": "node", "id": 8741136153, "lat": 41.6314584, "lon": 41.6186356}, {"type": "node", "id": 8749321726, "lat": 41.6153305, "lon": 41.624599}, {"type": "node", "id": 8749321734, "lat": 41.616643, "lon": 41.6230707}, {"type": "node", "id": 8749321735, "lat": 41.6159452, "lon": 41.6230975}, {"type": "node", "id": 8749321736, "lat": 41.6157206, "lon": 41.6229097}, {"type": "node", "id": 8749321737, "lat": 41.6153061, "lon": 41.6229206}, {"type": "node", "id": 8749321738, "lat": 41.6155065, "lon": 41.6247772}, {"type": "node", "id": 8749321745, "lat": 41.6153086, "lon": 41.6230933}, {"type": "node", "id": 8749321769, "lat": 41.6153557, "lon": 41.624853}, {"type": "node", "id": 8781211078, "lat": 41.6372127, "lon": 41.6715066}, {"type": "node", "id": 8786376363, "lat": 41.6403523, "lon": 41.6644239}, {"type": "node", "id": 8786376374, "lat": 41.6396408, "lon": 41.6647937}, {"type": "node", "id": 8794933042, "lat": 41.6153163, "lon": 41.6236209}, {"type": "node", "id": 8827755467, "lat": 41.637238, "lon": 41.6713875}, {"type": "node", "id": 8827755473, "lat": 41.6358465, "lon": 41.672255}, {"type": "node", "id": 8827812727, "lat": 41.6359107, "lon": 41.6719838}, {"type": "node", "id": 9373673797, "lat": 41.8055887, "lon": 41.7763274}, {"type": "node", "id": 9373673798, "lat": 41.805916, "lon": 41.7762402}, {"type": "node", "id": 9778679461, "lat": 41.635592, "lon": 41.6373338, "tags": {"addr:housenumber": "102\u10d1", "addr:street": "\u10de\u10d4\u10e2\u10e0\u10d4\u00a0\u10db\u10d4\u10da\u10d8\u10e5\u10d8\u10e8\u10d5\u10d8\u10da\u10d8\u10e1\u00a0\u10e5\u10e3\u10e9\u10d0", "amenity": "hospital", "check_date": "2022-12-13", "contact:email": "maritime.hospital@mh.com.ge", "contact:facebook": "https://www.facebook.com/MaritimeHospital2019", "contact:instagram": "https://www.instagram.com/maritime_hospital", "contact:phone": "+995 422 272588", "contact:website": "http://mh.com.ge", "healthcare": "hospital", "name": "\u10e1\u10d0\u10d6\u10e6\u10d5\u10d0\u10dd \u10f0\u10dd\u10e1\u10de\u10d8\u10e2\u10d0\u10da\u10d8", "name:en": "Maritime Hospital", "name:ka": "\u10e1\u10d0\u10d6\u10e6\u10d5\u10d0\u10dd \u10f0\u10dd\u10e1\u10de\u10d8\u10e2\u10d0\u10da\u10d8"}}, {"type": "node", "id": 9788267811, "lat": 41.6433377, "lon": 41.6274209, "tags": {"addr:housenumber": "31", "addr:street": "\u10d4\u10e5\u10d5\u10d7\u10d8\u10db\u10d4 \u10d7\u10d0\u10e7\u10d0\u10d8\u10e8\u10d5\u10d8\u10da\u10d8\u10e1 \u10e5\u10e3\u10e9\u10d0", "amenity": "dentist", "check_date": "2022-10-29", "healthcare": "dentist", "name": "\u10d0\u10e1\u10da\u10d0\u10dc \u10e4\u10d0\u10e0\u10e2\u10d4\u10dc\u10d0\u10eb\u10d4", "name:en": "Aslan Partenadze", "name:ka": "\u10d0\u10e1\u10da\u10d0\u10dc \u10e4\u10d0\u10e0\u10e2\u10d4\u10dc\u10d0\u10eb\u10d4"}}, {"type": "node", "id": 9812398250, "lat": 41.6405637, "lon": 41.6238542}, {"type": "node", "id": 9812398260, "lat": 41.6389151, "lon": 41.6242389}, {"type": "node", "id": 9833086776, "lat": 41.9094802, "lon": 41.7761429}, {"type": "node", "id": 9833106060, "lat": 41.9096853, "lon": 41.7764091}, {"type": "node", "id": 9833106061, "lat": 41.9101028, "lon": 41.7759537}, {"type": "node", "id": 9833106062, "lat": 41.9100605, "lon": 41.7756854}, {"type": "node", "id": 9833106077, "lat": 41.9091982, "lon": 41.7754142}, {"type": "node", "id": 9833106078, "lat": 41.9097571, "lon": 41.7751997}, {"type": "node", "id": 9833106079, "lat": 41.9094528, "lon": 41.776294}, {"type": "node", "id": 9835344660, "lat": 41.6418895, "lon": 41.6208868, "tags": {"amenity": "clinic", "check_date": "2022-10-14", "healthcare": "clinic", "level": "0", "name": "\u10dc\u10db\u10d4\u10d3\u10d8\u10ea\u10d8", "name:en": "Enmedic", "name:ka": "\u10dc\u10db\u10d4\u10d3\u10d8\u10ea\u10d8", "opening_hours": "Mo-Fr 09:00-19:00; Sa 10:00-14:00; Su off", "payment:credit_cards": "yes", "payment:debit_cards": "yes", "payment:mastercard": "yes", "payment:visa": "yes", "website": "https://enmedic.ge", "wheelchair": "yes"}}, {"type": "node", "id": 9838005855, "lat": 41.6330876, "lon": 41.6234994, "tags": {"addr:housenumber": "129", "addr:street": "\u10de\u10d4\u10e2\u10e0\u10d4 \u10d1\u10d0\u10d2\u10e0\u10d0\u10e2\u10d8\u10dd\u10dc\u10d8\u10e1 \u10e5\u10e3\u10e9\u10d0", "amenity": "clinic", "check_date": "2023-02-01", "healthcare": "clinic", "level": "1", "name": "\u10d3\u10d0\u10d5\u10d8\u10d7 \u10e2\u10d0\u10e2\u10d8\u10e8\u10d5\u10d8\u10da\u10d8 \u10e1\u10d0\u10db\u10d4\u10d3\u10d8\u10ea\u10d8\u10dc\u10dd \u10ea\u10d4\u10dc\u10e2\u10e0\u10d8", "name:en": "David Tatishvili Medical Center", "name:ka": "\u10d3\u10d0\u10d5\u10d8\u10d7 \u10e2\u10d0\u10e2\u10d8\u10e8\u10d5\u10d8\u10da\u10d8 \u10e1\u10d0\u10db\u10d4\u10d3\u10d8\u10ea\u10d8\u10dc\u10dd \u10ea\u10d4\u10dc\u10e2\u10e0\u10d8", "opening_hours": "Mo-Su 09:00-18:00", "phone": "0322800816", "website": "https://fb.com/Tatishvili.Batumi", "wheelchair": "no"}}, {"type": "node", "id": 9846575777, "lat": 41.6427501, "lon": 41.6237885, "tags": {"addr:housenumber": "151", "addr:street": "\u10d5\u10d0\u10ee\u10e2\u10d0\u10dc\u10d2 \u10d2\u10dd\u10e0\u10d2\u10d0\u10e1\u10d0\u10da\u10d8\u10e1 \u10e5\u10e3\u10e9\u10d0", "amenity": "dentist", "check_date": "2022-10-14", "check_date:opening_hours": "2023-03-09", "healthcare": "dentist", "level": "0", "name": "White Dent", "opening_hours:signed": "no", "payment:credit_cards": "yes", "payment:debit_cards": "yes", "payment:mastercard": "yes", "payment:visa": "yes"}}, {"type": "node", "id": 9858890475, "lat": 41.6455666, "lon": 41.6313019, "tags": {"amenity": "veterinary", "check_date": "2022-10-22", "level": "0", "name": "\u10d2\u10d8\u10dd\u10e0\u10d2\u10d8 \u10d9\u10d0\u10da\u10d0\u10dc\u10d0\u10eb\u10d8\u10e1 \u10d5\u10d4\u10e2\u10d4\u10e0\u10d8\u10dc\u10d0\u10e0\u10e3\u10da\u10d8 \u10d9\u10da\u10d8\u10dc\u10d8\u10d9\u10d0", "name:en": "Giorgi Kalanadze Veterinary Clinic", "name:ka": "\u10d2\u10d8\u10dd\u10e0\u10d2\u10d8 \u10d9\u10d0\u10da\u10d0\u10dc\u10d0\u10eb\u10d8\u10e1 \u10d5\u10d4\u10e2\u10d4\u10e0\u10d8\u10dc\u10d0\u10e0\u10e3\u10da\u10d8 \u10d9\u10da\u10d8\u10dc\u10d8\u10d9\u10d0", "note": "This office marked as for sale, but for now the clinic is working. Check later", "opening_hours": "Mo-Fr 11:30-19:00; Sa-Su off", "phone": "+995 593 51 25 25", "wheelchair": "yes"}}, {"type": "node", "id": 9886344790, "lat": 41.6430506, "lon": 41.6292861, "tags": {"addr:housenumber": "33", "addr:street": "\u10e1\u10d4\u10da\u10d8\u10db \u10ee\u10d8\u10db\u10e8\u10d8\u10d0\u10e8\u10d5\u10d8\u10da\u10d8\u10e1 \u10e5\u10e3\u10e9\u10d0", "amenity": "dentist", "check_date": "2022-10-04", "healthcare": "dentist", "level": "0", "wheelchair": "no"}}, {"type": "node", "id": 9969160835, "lat": 41.6399637, "lon": 41.6332497}, {"type": "node", "id": 10029907132, "lat": 41.6351128, "lon": 41.6138864, "tags": {"amenity": "dentist", "check_date": "2023-10-16", "healthcare": "dentist", "level": "0", "name": "Nano Dent", "wheelchair": "no"}}, {"type": "node", "id": 10032108776, "lat": 41.644571, "lon": 41.6205041, "tags": {"amenity": "dentist", "check_date": "2022-09-17", "healthcare": "dentist", "level": "0", "name": "\u10d3\u10d4\u10dc\u10e2\u10d0\u10da \u10da\u10d0\u10e3\u10dc\u10ef\u10d8", "name:en": "Dental Lounge", "name:ka": "\u10d3\u10d4\u10dc\u10e2\u10d0\u10da \u10da\u10d0\u10e3\u10dc\u10ef\u10d8", "website": "https://dentallounge.ge", "wheelchair": "no"}}, {"type": "node", "id": 10068998332, "lat": 41.6515415, "lon": 41.63437, "tags": {"amenity": "dentist", "check_date": "2022-10-02", "healthcare": "dentist", "level": "0", "name": "\u10dc\u10d8\u10e3 \u10d3\u10d4\u10dc\u10e2\u10d8 XXI", "payment:credit_cards": "yes", "payment:debit_cards": "yes"}}, {"type": "node", "id": 10075133248, "lat": 41.643729, "lon": 41.6288335, "tags": {"amenity": "clinic", "check_date": "2022-10-04", "healthcare": "clinic", "level": "0", "operator:type": "private"}}, {"type": "node", "id": 10080149661, "lat": 41.6341798, "lon": 41.6139002, "tags": {"addr:housenumber": "49", "addr:street": "\u10e2\u10d1\u10d4\u10da \u10d0\u10d1\u10e3\u10e1\u10d4\u10e0\u10d8\u10e1\u10eb\u10d8\u10e1 \u10e5\u10e3\u10e9\u10d0", "amenity": "veterinary", "check_date": "2023-03-24", "name": "\u10e1\u10d0\u10e5\u10d0\u10e0\u10d7\u10d5\u10d4\u10da\u10dd\u10e1 \u10e2\u10ee\u10dd\u10d5\u10d4\u10da\u10d7\u10d0 \u10e4\u10d4\u10d3\u10d4\u10e0\u10d0\u10ea\u10d8\u10d0", "name:en": "Georgian Animals Federation", "name:ka": "\u10e1\u10d0\u10e5\u10d0\u10e0\u10d7\u10d5\u10d4\u10da\u10dd\u10e1 \u10e2\u10ee\u10dd\u10d5\u10d4\u10da\u10d7\u10d0 \u10e4\u10d4\u10d3\u10d4\u10e0\u10d0\u10ea\u10d8\u10d0", "wheelchair": "no"}}, {"type": "node", "id": 10083939219, "lat": 41.6501183, "lon": 41.631755, "tags": {"amenity": "dentist", "check_date": "2022-10-08", "healthcare": "dentist", "level": "-1", "payment:mastercard": "yes", "payment:visa": "yes", "phone": "+995 593 33 08 97", "wheelchair": "no"}}, {"type": "node", "id": 10083939252, "lat": 41.6505187, "lon": 41.6348017, "tags": {"addr:housenumber": "19", "addr:street": "\u10d3\u10d4\u10db\u10d4\u10e2\u10e0\u10d4 \u10d7\u10d0\u10d5\u10d3\u10d0\u10d3\u10d4\u10d1\u10e3\u10da\u10d8\u10e1 \u10e5\u10e3\u10e9\u10d0", "amenity": "clinic", "check_date": "2022-10-08", "healthcare": "clinic", "healthcare:speciality": "covid19;blood_check", "level": "0", "name": "\u10d8\u10e3\u10dc\u10d8\u10e5", "name:en": "Unique", "name:ka": "\u10d8\u10e3\u10dc\u10d8\u10e5", "opening_hours": "09:00-19:00", "operator:type": "private", "wheelchair": "limited"}}, {"type": "node", "id": 10084788845, "lat": 41.6488173, "lon": 41.6334808, "tags": {"amenity": "clinic", "check_date": "2022-10-08", "healthcare": "clinic", "name": "\u10db\u10d4\u10d3\u10d8", "name:en": "Medi", "name:ka": "\u10db\u10d4\u10d3\u10d8", "website": "https://medi.ge"}}, {"type": "node", "id": 10087111699, "lat": 41.6520673, "lon": 41.6395895, "tags": {"amenity": "dentist", "check_date": "2022-10-09", "healthcare": "dentist"}}, {"type": "node", "id": 10101683449, "lat": 41.642143, "lon": 41.6230291, "tags": {"amenity": "dentist", "check_date": "2022-10-14", "healthcare": "dentist"}}, {"type": "node", "id": 10101683451, "lat": 41.6422341, "lon": 41.6223727, "tags": {"addr:housenumber": "159", "addr:street": "\u10d5\u10d0\u10ee\u10e2\u10d0\u10dc\u10d2 \u10d2\u10dd\u10e0\u10d2\u10d0\u10e1\u10d0\u10da\u10d8\u10e1 \u10e5\u10e3\u10e9\u10d0", "amenity": "clinic", "check_date": "2022-10-14", "check_date:opening_hours": "2023-03-09", "contact:email": "hello@reproartclinic.com", "contact:facebook": "https://facebook.com/reproartclinic", "contact:phone": "+995 595 441144", "contact:website": "https://reproart.ge", "healthcare": "clinic", "healthcare:speciality": "fertility", "level": "0", "name": "\u10e0\u10d4\u10de\u10e0\u10dd\u10d0\u10e0\u10e2\u10d8", "name:en": "Reproart", "name:ka": "\u10e0\u10d4\u10de\u10e0\u10dd\u10d0\u10e0\u10e2\u10d8", "opening_hours:signed": "no", "wheelchair": "no"}}, {"type": "node", "id": 10101683457, "lat": 41.6373086, "lon": 41.6138403, "tags": {"amenity": "clinic", "check_date": "2023-02-17", "healthcare": "clinic", "name": "\u10e1\u10d8\u10db\u10d4\u10e2\u10e0\u10d8\u10d0", "name:en": "Symmetria", "name:ka": "\u10e1\u10d8\u10db\u10d4\u10e2\u10e0\u10d8\u10d0"}}, {"type": "node", "id": 10101683473, "lat": 41.641859, "lon": 41.6212369, "tags": {"addr:housenumber": "3\u10d0", "addr:street": "\u10d8\u10d5\u10d0\u10dc\u10d4 \u10ef\u10d0\u10d5\u10d0\u10ee\u10d8\u10e8\u10d5\u10d8\u10da\u10d8\u10e1 \u10e5\u10e3\u10e9\u10d0", "amenity": "dentist", "check_date": "2023-03-04", "check_date:opening_hours": "2023-03-04", "contact:email": "khozrevanidzedent@gmail.com", "contact:facebook": "https://facebook.com/khozrevanidzisstomatologiuriklinika", "contact:phone": "+995 514 313300", "healthcare": "dentist", "level": "1", "name": "\u10ee\u10dd\u10d6\u10e0\u10d4\u10d5\u10d0\u10dc\u10d8\u10eb\u10d8\u10e1 \u10e1\u10e2\u10dd\u10db\u10d0\u10e2\u10dd\u10da\u10dd\u10d2\u10d8\u10e3\u10e0\u10d8 \u10d9\u10da\u10d8\u10dc\u10d8\u10d9\u10d0", "name:en": "Khozrevanidze Dental Clinic", "name:ka": "\u10ee\u10dd\u10d6\u10e0\u10d4\u10d5\u10d0\u10dc\u10d8\u10eb\u10d8\u10e1 \u10e1\u10e2\u10dd\u10db\u10d0\u10e2\u10dd\u10da\u10dd\u10d2\u10d8\u10e3\u10e0\u10d8 \u10d9\u10da\u10d8\u10dc\u10d8\u10d9\u10d0", "opening_hours:signed": "no"}}, {"type": "node", "id": 10101683478, "lat": 41.6421365, "lon": 41.6217326, "tags": {"addr:housenumber": "158", "addr:street": "\u10d5\u10d0\u10ee\u10e2\u10d0\u10dc\u10d2 \u10d2\u10dd\u10e0\u10d2\u10d0\u10e1\u10d0\u10da\u10d8\u10e1 \u10e5\u10e3\u10e9\u10d0", "amenity": "clinic", "check_date": "2022-10-14", "contact:email": "georgia@acibadem.com", "contact:facebook": "https://www.facebook.com/AcibademGeorgia", "contact:website": "https://acibadem.ge", "healthcare": "clinic", "level": "0", "name": "\u10d0\u10ef\u10d8\u10d1\u10d0\u10d3\u10d4\u10db\u10d8", "name:en": "Acibadem", "name:ka": "\u10d0\u10ef\u10d8\u10d1\u10d0\u10d3\u10d4\u10db\u10d8", "opening_hours": "Mo-Fr 09:00-18:00", "phone": "+995 422 22 30 00", "wheelchair": "no"}}, {"type": "node", "id": 10101804647, "lat": 41.6445301, "lon": 41.6291854, "tags": {"addr:housenumber": "110-114", "addr:street": "\u10d5\u10d0\u10ee\u10e2\u10d0\u10dc\u10d2 \u10d2\u10dd\u10e0\u10d2\u10d0\u10e1\u10d0\u10da\u10d8\u10e1 \u10e5\u10e3\u10e9\u10d0", "amenity": "dentist", "check_date": "2022-10-14", "healthcare": "dentist", "level": "0", "name": "\u10da\u10dd\u10da\u10d8\u10de\u10dd\u10de\u10d8", "name:en": "Lollipop", "name:ka": "\u10da\u10dd\u10da\u10d8\u10de\u10dd\u10de\u10d8", "wheelchair": "no"}}, {"type": "node", "id": 10101896598, "lat": 41.6480119, "lon": 41.630754, "tags": {"amenity": "clinic", "check_date": "2022-10-14", "healthcare": "clinic"}}, {"type": "node", "id": 10103438563, "lat": 41.649872, "lon": 41.6285897, "tags": {"addr:housenumber": "32", "addr:street": "\u10e8\u10dd\u10d7\u10d0 \u10e0\u10e3\u10e1\u10d7\u10d0\u10d5\u10d4\u10da\u10d8\u10e1 \u10e5\u10e3\u10e9\u10d0", "amenity": "dentist", "check_date": "2022-10-15", "healthcare": "dentist", "level": "0", "name": "\u10d1\u10e1\u10e3 \u10d3\u10d4\u10dc\u10e2\u10d8", "name:en": "BSU Dent", "name:ka": "\u10d1\u10e1\u10e3 \u10d3\u10d4\u10dc\u10e2\u10d8", "wheelchair": "no"}}, {"type": "node", "id": 10103438576, "lat": 41.6497867, "lon": 41.6292069, "tags": {"addr:housenumber": "43", "addr:street": "\u10e8\u10dd\u10d7\u10d0 \u10e0\u10e3\u10e1\u10d7\u10d0\u10d5\u10d4\u10da\u10d8\u10e1 \u10e5\u10e3\u10e9\u10d0", "amenity": "clinic", "check_date": "2022-10-15", "healthcare": "clinic", "level": "0", "name": "Medicana", "name:en": "Medicana", "wheelchair": "no"}}, {"type": "node", "id": 10119701878, "lat": 41.6474182, "lon": 41.639858, "tags": {"amenity": "dentist", "check_date": "2022-10-21", "healthcare": "dentist", "level": "0", "name": "L-Dent", "payment:mastercard": "yes", "payment:visa": "yes"}}, {"type": "node", "id": 10119701879, "lat": 41.6474796, "lon": 41.6399527, "tags": {"amenity": "dentist", "check_date": "2022-10-21", "healthcare": "dentist", "level": "0", "name": "\u10dc\u10d4\u10dd\u10d3\u10d4\u10dc\u10e2\u10d8", "name:en": "NeoDent", "name:ka": "\u10dc\u10d4\u10dd\u10d3\u10d4\u10dc\u10e2\u10d8", "wheelchair": "no"}}, {"type": "node", "id": 10121072134, "lat": 41.6446387, "lon": 41.6272735, "tags": {"amenity": "dentist", "check_date": "2022-10-22", "healthcare": "dentist", "name": "\u10d3\u10d4\u10dc\u10e2\u10d0 \u10da\u10e3\u10d9\u10e1\u10d8", "name:en": "Denta Lux", "name:ka": "\u10d3\u10d4\u10dc\u10e2\u10d0 \u10da\u10e3\u10d9\u10e1\u10d8", "opening_hours": "Mo-Fr 09:00-20:00"}}, {"type": "node", "id": 10121072146, "lat": 41.6452098, "lon": 41.6298961, "tags": {"amenity": "clinic", "check_date": "2022-10-22", "contact:facebook": "https://www.facebook.com/cito.medical.center", "healthcare": "clinic", "level": "0", "name": "\u10ea\u10d8\u10e2\u10dd", "name:en": "Cito", "name:ka": "\u10ea\u10d8\u10e2\u10dd", "opening_hours": "Mo-Fr 09:00-17:00; Sa-Su off", "operator:type": "private", "website": "https://cito.ge", "wheelchair": "no"}}, {"type": "node", "id": 10121072148, "lat": 41.6453587, "lon": 41.630334, "tags": {"amenity": "dentist", "check_date": "2022-10-22", "check_date:opening_hours": "2023-03-09", "healthcare": "dentist", "level": "0", "name": "\u10e0\u10e3\u10e3\u10db", "name:en": "Room", "name:ka": "\u10e0\u10e3\u10e3\u10db", "opening_hours:signed": "no"}}, {"type": "node", "id": 10121072157, "lat": 41.6457231, "lon": 41.6306299, "tags": {"amenity": "dentist", "check_date": "2022-10-22", "healthcare": "dentist", "level": "1", "name": "\u10d3\u10d4\u10dc\u10e2\u10d8\u10ea\u10d8\u10d0", "name:en": "Denticia", "name:ka": "\u10d3\u10d4\u10dc\u10e2\u10d8\u10ea\u10d8\u10d0"}}, {"type": "node", "id": 10121072162, "lat": 41.6465933, "lon": 41.634888, "tags": {"amenity": "clinic", "check_date": "2022-10-22", "healthcare": "clinic"}}, {"type": "node", "id": 10121854641, "lat": 41.6472431, "lon": 41.6312816, "tags": {"amenity": "dentist", "check_date": "2022-10-23", "healthcare": "dentist"}}, {"type": "node", "id": 10123927718, "lat": 41.6450846, "lon": 41.6257231, "tags": {"addr:housenumber": "54", "addr:street": "\u10d6\u10e3\u10e0\u10d0\u10d1 \u10d2\u10dd\u10e0\u10d2\u10d8\u10da\u10d0\u10eb\u10d8\u10e1 \u10e5\u10e3\u10e9\u10d0", "amenity": "dentist", "check_date": "2022-10-23", "healthcare": "dentist", "level": "0", "name": "\u10ef\u10d8-\u10d3\u10d4\u10dc\u10e2\u10d8", "name:en": "G-Dent", "name:ka": "\u10ef\u10d8-\u10d3\u10d4\u10dc\u10e2\u10d8"}}, {"type": "node", "id": 10124268610, "lat": 41.6466691, "lon": 41.6319657, "tags": {"amenity": "dentist", "check_date": "2022-10-23", "healthcare": "dentist"}}, {"type": "node", "id": 10140025652, "lat": 41.6404917, "lon": 41.6229749, "tags": {"amenity": "dentist", "check_date": "2022-10-30", "contact:facebook": "https://facebook.com/ROLIDENT2020", "healthcare": "dentist", "name": "\u10e0\u10dd\u10da\u10d8 \u10d3\u10d4\u10dc\u10e2\u10d8", "name:en": "Roli Dent", "name:ka": "\u10e0\u10dd\u10da\u10d8 \u10d3\u10d4\u10dc\u10e2\u10d8", "opening_hours": "Mo-Sa 10:00-19:00; Su off"}}, {"type": "node", "id": 10140480517, "lat": 41.6509546, "lon": 41.6382889, "tags": {"addr:city": "\u10d1\u10d0\u10d7\u10e3\u10db\u10d8", "addr:country": "GE", "addr:housenumber": "24", "addr:postcode": "6010", "addr:street": "\u10d0\u10ee\u10db\u10d4\u10d3 \u10db\u10d4\u10da\u10d0\u10e8\u10d5\u10d8\u10da\u10d8\u10e1 \u10e5\u10e3\u10e9\u10d0", "amenity": "dentist", "check_date": "2023-09-10", "contact:instagram": "dr.gia_beridze", "contact:website": "https://www.drgiaberidze.com/en", "email": "dr.g.beridze@gmail.com", "healthcare": "dentist", "healthcare:speciality": "dental_oral_maxillo_facial_surgery", "internet_access": "wlan", "name": "\u10d2\u10d8\u10d0 \u10d1\u10d4\u10e0\u10d8\u10eb\u10d8\u10e1 \u10e1\u10e2\u10dd\u10db\u10d0\u10e2\u10dd\u10da\u10dd\u10d2\u10d8\u10e3\u10e0\u10d8 \u10d9\u10d0\u10d1\u10d8\u10dc\u10d4\u10e2\u10d8", "name:en": "Gia Beridze Dentist Cabinet", "name:ka": "\u10d2\u10d8\u10d0 \u10d1\u10d4\u10e0\u10d8\u10eb\u10d8\u10e1 \u10e1\u10e2\u10dd\u10db\u10d0\u10e2\u10dd\u10da\u10dd\u10d2\u10d8\u10e3\u10e0\u10d8 \u10d9\u10d0\u10d1\u10d8\u10dc\u10d4\u10e2\u10d8", "name:ru": "\u0421\u0442\u043e\u043c\u0430\u043b\u043e\u043b\u043e\u0433 \u0413\u0438\u0430 \u0411\u0435\u0440\u0438\u0434\u0437\u0435", "opening_hours": "Mo-Su 10:00-20:00", "phone": "+995555091010"}}, {"type": "node", "id": 10157611423, "lat": 41.6425474, "lon": 41.6178848, "tags": {"addr:housenumber": "96", "addr:street": "\u10d6\u10e3\u10e0\u10d0\u10d1 \u10d2\u10dd\u10e0\u10d2\u10d8\u10da\u10d0\u10eb\u10d8\u10e1 \u10e5\u10e3\u10e9\u10d0", "amenity": "dentist", "check_date": "2022-11-04", "healthcare": "dentist", "level": "0", "name": "\u10ef-\u10e1\u10db\u10d0\u10d8\u10da\u10d8", "name:en": "j-smile", "name:ka": "\u10ef-\u10e1\u10db\u10d0\u10d8\u10da\u10d8", "payment:credit_cards": "yes", "payment:debit_cards": "yes", "wheelchair": "no"}}, {"type": "node", "id": 10159441810, "lat": 41.6429551, "lon": 41.6259741, "tags": {"amenity": "dentist", "check_date": "2023-04-09", "healthcare": "dentist", "name": "\u10d3\u10d4\u10dc\u10e2 \u10d4\u10e4\u10d4\u10e5\u10e2", "name:en": "Dent Effect", "name:ka": "\u10d3\u10d4\u10dc\u10e2 \u10d4\u10e4\u10d4\u10e5\u10e2"}}, {"type": "node", "id": 10162376827, "lat": 41.6399173, "lon": 41.6228498, "tags": {"amenity": "clinic", "check_date": "2022-11-06", "healthcare": "clinic", "healthcare:speciality": "dermatology"}}, {"type": "node", "id": 10178279403, "lat": 41.6461106, "lon": 41.6485929, "tags": {"addr:housenumber": "58", "addr:street": "\u10d1\u10d0\u10e5\u10dd\u10e1 \u10e5\u10e3\u10e9\u10d0", "amenity": "clinic", "check_date": "2022-11-12", "healthcare": "clinic", "name": "\u10db\u10de\u10d2\u10e5\u10d0\u10e0\u10d4+", "name:en": "MPG Care+", "name:ka": "\u10db\u10de\u10d2\u10e5\u10d0\u10e0\u10d4+"}}, {"type": "node", "id": 10178407142, "lat": 41.64611, "lon": 41.6485589, "tags": {"addr:housenumber": "58", "addr:street": "\u10d1\u10d0\u10e5\u10dd\u10e1 \u10e5\u10e3\u10e9\u10d0", "amenity": "clinic", "check_date": "2022-11-12", "healthcare": "clinic", "name": "\u10db\u10d4\u10d3\u10d8\u10e5\u10d0\u10da\u10de\u10d0\u10e0\u10d9\u10d8", "name:en": "MedicalPark", "name:ka": "\u10db\u10d4\u10d3\u10d8\u10e5\u10d0\u10da\u10de\u10d0\u10e0\u10d9\u10d8"}}, {"type": "node", "id": 10178492838, "lat": 41.64606, "lon": 41.6376788, "tags": {"amenity": "dentist", "check_date": "2022-11-12", "healthcare": "dentist"}}, {"type": "node", "id": 10178492848, "lat": 41.6458963, "lon": 41.6373499, "tags": {"amenity": "clinic", "check_date": "2022-11-12", "healthcare": "clinic", "operator:type": "private"}}, {"type": "node", "id": 10178492858, "lat": 41.6453291, "lon": 41.6372112, "tags": {"amenity": "dentist", "check_date": "2022-11-12", "healthcare": "dentist", "name": "\u10e0\u10d3\u10d4\u10dc\u10e2\u10d8", "name:en": "Rdent", "name:ka": "\u10e0\u10d3\u10d4\u10dc\u10e2\u10d8"}}, {"type": "node", "id": 10180759012, "lat": 41.6416548, "lon": 41.6255524, "tags": {"amenity": "clinic", "check_date": "2022-11-13", "healthcare": "clinic", "name": "Kani"}}, {"type": "node", "id": 10181383703, "lat": 41.6403909, "lon": 41.6284279}, {"type": "node", "id": 10181383704, "lat": 41.6403977, "lon": 41.6284521}, {"type": "node", "id": 10181383705, "lat": 41.6404742, "lon": 41.6285272}, {"type": "node", "id": 10181383706, "lat": 41.6404827, "lon": 41.6285229}, {"type": "node", "id": 10209534121, "lat": 41.6457896, "lon": 41.6333029, "tags": {"amenity": "dentist", "check_date": "2022-11-22", "healthcare": "dentist", "level": "0", "name": "\u10e1\u10e2\u10e0\u10d4\u10e0\u10d3\u10d4\u10dc\u10e2", "name:en": "StretDent", "name:ka": "\u10e1\u10e2\u10e0\u10d4\u10e0\u10d3\u10d4\u10dc\u10e2", "wheelchair": "no"}}, {"type": "node", "id": 10210293701, "lat": 41.6425253, "lon": 41.6349254}, {"type": "node", "id": 10210293702, "lat": 41.6425374, "lon": 41.6349442}, {"type": "node", "id": 10210293703, "lat": 41.6425088, "lon": 41.6349931}, {"type": "node", "id": 10210293704, "lat": 41.6425895, "lon": 41.6351219}, {"type": "node", "id": 10210293705, "lat": 41.642602, "lon": 41.6351775}, {"type": "node", "id": 10211607348, "lat": 41.640408, "lon": 41.6233822}, {"type": "node", "id": 10211607355, "lat": 41.6390029, "lon": 41.6245821}, {"type": "node", "id": 10211607356, "lat": 41.6404713, "lon": 41.6249201}, {"type": "node", "id": 10211607357, "lat": 41.6410626, "lon": 41.6244936}, {"type": "node", "id": 10211607358, "lat": 41.6410746, "lon": 41.6244453}, {"type": "node", "id": 10211607359, "lat": 41.6410075, "lon": 41.6242374}, {"type": "node", "id": 10211612927, "lat": 41.6389092, "lon": 41.6242602}, {"type": "node", "id": 10211612928, "lat": 41.6393528, "lon": 41.625714}, {"type": "node", "id": 10211612929, "lat": 41.6393748, "lon": 41.6257395}, {"type": "node", "id": 10211612934, "lat": 41.6406923, "lon": 41.6237862}, {"type": "node", "id": 10211807798, "lat": 41.6234915, "lon": 41.6198237, "tags": {"amenity": "dentist", "check_date": "2022-11-23", "healthcare": "dentist", "name": "\u10da\u10d8\u10d3\u10d4\u10e0 \u10d3\u10d4\u10dc\u10e2\u10d0\u10da\u10dd+", "name:en": "Leader Dentist+", "name:ka": "\u10da\u10d8\u10d3\u10d4\u10e0 \u10d3\u10d4\u10dc\u10e2\u10d0\u10da\u10dd+"}}, {"type": "node", "id": 10211877340, "lat": 41.6298219, "lon": 41.6140859, "tags": {"amenity": "dentist", "check_date": "2022-11-23", "contact:facebook": "https://www.facebook.com/SmileTime.Agmashenebeli.Street.10.Batumi/", "healthcare": "dentist", "name": "\u10e1\u10db\u10d0\u10d8\u10da \u10d7\u10d0\u10d8\u10db", "name:en": "Smile Time", "name:ka": "\u10e1\u10db\u10d0\u10d8\u10da \u10d7\u10d0\u10d8\u10db"}}, {"type": "node", "id": 10211877379, "lat": 41.6270254, "lon": 41.6170467, "tags": {"amenity": "dentist", "check_date": "2022-11-23", "healthcare": "dentist", "name": "\u10d0\u10ee\u10d0\u10da\u10d8 \u10e6\u10d8\u10db\u10d8\u10da\u10d8", "name:en": "New Smile", "name:ka": "\u10d0\u10ee\u10d0\u10da\u10d8 \u10e6\u10d8\u10db\u10d8\u10da\u10d8", "payment:mastercard": "yes", "payment:visa": "yes", "wheelchair": "limited"}}, {"type": "node", "id": 10217082272, "lat": 41.6445295, "lon": 41.639115, "tags": {"amenity": "dentist", "check_date": "2022-11-25", "healthcare": "dentist", "name": "MG Dental Clinic"}}, {"type": "node", "id": 10217082281, "lat": 41.6439578, "lon": 41.6393837, "tags": {"amenity": "veterinary", "check_date": "2022-11-25"}}, {"type": "node", "id": 10217082302, "lat": 41.6435949, "lon": 41.6403531, "tags": {"amenity": "dentist", "check_date": "2022-11-25", "healthcare": "dentist", "name": "Doctor Smile"}}, {"type": "node", "id": 10221298176, "lat": 41.6384711, "lon": 41.6247516, "tags": {"amenity": "clinic", "check_date": "2022-11-27", "contact:instagram": "https://instagram.com/newplasma_clinic", "contact:phone": "+995 568 104410", "healthcare": "clinic", "name": "\u10dc\u10d8\u10e3 \u10de\u10da\u10d0\u10d6\u10db\u10d0", "name:en": "New Plasma", "name:ka": "\u10dc\u10d8\u10e3 \u10de\u10da\u10d0\u10d6\u10db\u10d0"}}, {"type": "node", "id": 10221509178, "lat": 41.634431, "lon": 41.624262, "tags": {"amenity": "clinic", "check_date": "2022-11-27", "contact:facebook": "https://www.facebook.com/Mrcheveli1", "contact:phone": "+995 322 931000", "contact:website": "https://mrcheveli.com", "contact:youtube": "https://www.youtube.com/channel/UCaUYubfzGTA-5qYZifxfvtg", "healthcare": "clinic", "name": "\u10db\u10e0\u10e9\u10d5\u10d4\u10da\u10d8", "name:en": "Mrcheveli", "name:ka": "\u10db\u10e0\u10e9\u10d5\u10d4\u10da\u10d8", "opening_hours": "Mo-Fr 09:00-18:00; Sa 09:00-13:00; Su off", "wheelchair": "yes"}}, {"type": "node", "id": 10222371125, "lat": 41.6336773, "lon": 41.6250821}, {"type": "node", "id": 10222371128, "lat": 41.6337889, "lon": 41.625026}, {"type": "node", "id": 10222371129, "lat": 41.6339459, "lon": 41.6252687}, {"type": "node", "id": 10222371130, "lat": 41.6339668, "lon": 41.6253503}, {"type": "node", "id": 10222371131, "lat": 41.6339955, "lon": 41.6253359}, {"type": "node", "id": 10222371132, "lat": 41.6339729, "lon": 41.6252552}, {"type": "node", "id": 10222371133, "lat": 41.6338792, "lon": 41.6250311}, {"type": "node", "id": 10222371134, "lat": 41.6338594, "lon": 41.6250411}, {"type": "node", "id": 10222371135, "lat": 41.6340292, "lon": 41.6255727}, {"type": "node", "id": 10222371136, "lat": 41.634012, "lon": 41.6255814}, {"type": "node", "id": 10225565154, "lat": 41.6414586, "lon": 41.6227926, "tags": {"amenity": "clinic", "check_date": "2022-11-29", "healthcare": "clinic", "name": "\u10db\u10d4\u10e0\u10da\u10d0\u10d1\u10d8", "name:en": "Merlab", "name:ka": "\u10db\u10d4\u10e0\u10da\u10d0\u10d1\u10d8"}}, {"type": "node", "id": 10225565160, "lat": 41.6417093, "lon": 41.622982, "tags": {"amenity": "clinic", "check_date": "2022-11-29", "healthcare": "clinic", "name": "\u10d8\u10dc \u10d5\u10d8\u10e2\u10e0\u10dd", "name:en": "In Vitro", "name:ka": "\u10d8\u10dc \u10d5\u10d8\u10e2\u10e0\u10dd"}}, {"type": "node", "id": 10226372613, "lat": 41.6418353, "lon": 41.6225014}, {"type": "node", "id": 10226372614, "lat": 41.641707, "lon": 41.6226744}, {"type": "node", "id": 10226372615, "lat": 41.6417035, "lon": 41.6226952}, {"type": "node", "id": 10226372616, "lat": 41.6417736, "lon": 41.622834}, {"type": "node", "id": 10226376717, "lat": 41.6417867, "lon": 41.6228273}, {"type": "node", "id": 10226376718, "lat": 41.6418223, "lon": 41.6228991}, {"type": "node", "id": 10226376719, "lat": 41.6419901, "lon": 41.6227468}, {"type": "node", "id": 10226376720, "lat": 41.6419666, "lon": 41.6227019}, {"type": "node", "id": 10228127471, "lat": 41.6424102, "lon": 41.6332365, "tags": {"amenity": "dentist", "check_date": "2022-11-30", "healthcare": "dentist", "level": "0", "name": "\u10ea\u10d8\u10e0\u10d9\u10dd\u10dc\u10d8\u10e3\u10db\u10d8", "name:en": "Zirconium", "name:ka": "\u10ea\u10d8\u10e0\u10d9\u10dd\u10dc\u10d8\u10e3\u10db\u10d8", "wheelchair": "no"}}, {"type": "node", "id": 10232946011, "lat": 41.6444631, "lon": 41.6362026, "tags": {"amenity": "dentist", "check_date": "2023-01-12", "healthcare": "dentist"}}, {"type": "node", "id": 10232948822, "lat": 41.6451032, "lon": 41.6379133, "tags": {"amenity": "dentist", "check_date": "2022-12-02", "healthcare": "dentist"}}, {"type": "node", "id": 10242248032, "lat": 41.63173, "lon": 41.6161738, "tags": {"amenity": "dentist", "check_date": "2022-12-06", "healthcare": "dentist"}}, {"type": "node", "id": 10251668642, "lat": 41.6320243, "lon": 41.6188113}, {"type": "node", "id": 10251668643, "lat": 41.6321992, "lon": 41.6186243}, {"type": "node", "id": 10251668644, "lat": 41.6319568, "lon": 41.6188418}, {"type": "node", "id": 10251668645, "lat": 41.6320062, "lon": 41.6188569}, {"type": "node", "id": 10251668646, "lat": 41.631741, "lon": 41.6172154}, {"type": "node", "id": 10251668648, "lat": 41.6317096, "lon": 41.6172154}, {"type": "node", "id": 10251668649, "lat": 41.6324047, "lon": 41.6183305}, {"type": "node", "id": 10251668657, "lat": 41.6321729, "lon": 41.6185712}, {"type": "node", "id": 10253254162, "lat": 41.6389519, "lon": 41.6264494, "tags": {"amenity": "dentist", "check_date": "2022-12-11", "healthcare": "dentist"}}, {"type": "node", "id": 10253254165, "lat": 41.6404293, "lon": 41.6252092, "tags": {"amenity": "dentist", "check_date": "2022-12-11", "healthcare": "dentist", "name": "\u10d4\u10da-\u10d1\u10d8 \u10d3\u10d4\u10dc\u10e2\u10d8", "name:en": "LB-Dent", "name:ka": "\u10d4\u10da-\u10d1\u10d8 \u10d3\u10d4\u10dc\u10e2\u10d8"}}, {"type": "node", "id": 10259484633, "lat": 41.6314497, "lon": 41.6332666, "tags": {"amenity": "clinic", "check_date": "2022-12-13", "healthcare": "clinic"}}, {"type": "node", "id": 10275972667, "lat": 41.644425, "lon": 41.622286, "tags": {"amenity": "veterinary", "check_date": "2022-12-20", "contact:facebook": "https://facebook.com/people/Vet-Help/100086062163680/", "contact:instagram": "https://instagram.com/vethelp_batumi", "contact:phone": "+995 591 33 24 53", "name:en": "Vet Help"}}, {"type": "node", "id": 10310800324, "lat": 41.6365957, "lon": 41.6316988, "tags": {"amenity": "clinic", "check_date": "2023-01-06", "healthcare": "clinic", "name": "\u10e4\u10d0\u10e0\u10db\u10d0\u10da\u10d8\u10d0 \u10d9\u10da\u10d8\u10dc\u10d8\u10d9\u10d0", "name:en": "Pharmalia Clinic"}}, {"type": "node", "id": 10310800350, "lat": 41.640797, "lon": 41.6287572, "tags": {"addr:housenumber": "62", "addr:street": "\u10d4\u10e5\u10d5\u10d7\u10d8\u10db\u10d4 \u10d7\u10d0\u10e7\u10d0\u10d8\u10e8\u10d5\u10d8\u10da\u10d8\u10e1 \u10e5\u10e3\u10e9\u10d0", "amenity": "dentist", "check_date": "2023-01-06", "healthcare": "dentist", "level": "0", "name": "\u10d4\u10da\u10d8 \u10d3\u10d4\u10dc\u10e2\u10d8", "name:en": "Eli Dent", "name:ka": "\u10d4\u10da\u10d8 \u10d3\u10d4\u10dc\u10e2\u10d8", "wheelchair": "no"}}, {"type": "node", "id": 10310800358, "lat": 41.6416751, "lon": 41.6282034, "tags": {"amenity": "dentist", "check_date": "2023-01-06", "healthcare": "dentist"}}, {"type": "node", "id": 10314553508, "lat": 41.6376836, "lon": 41.6361162, "tags": {"amenity": "dentist", "check_date": "2023-01-08", "healthcare": "dentist", "name": "\u10da\u10d0\u10d8\u10e5 \u10d3\u10d4\u10dc\u10e2\u10d8", "name:en": "Like Dent", "name:ka": "\u10da\u10d0\u10d8\u10e5 \u10d3\u10d4\u10dc\u10e2\u10d8"}}, {"type": "node", "id": 10316701533, "lat": 41.6427349, "lon": 41.6309278, "tags": {"amenity": "clinic", "check_date": "2023-01-09", "healthcare": "clinic"}}, {"type": "node", "id": 10316774277, "lat": 41.6427626, "lon": 41.6353474, "tags": {"amenity": "clinic", "check_date": "2023-01-09", "contact:email": "solomedinfo@gmail.com", "contact:facebook": "https://facebook.com/people/%E1%83%A1%E1%83%9D%E1%83%9A%E1%83%9D%E1%83%9B%E1%83%94%E1%83%93%E1%83%98-SoloMed/100057387283883/", "contact:phone": "+995 555 774400", "healthcare": "clinic", "name": "\u10e1\u10dd\u10da\u10dd\u10db\u10d4\u10d3\u10d8", "name:en": "SoloMed", "name:ka": "\u10e1\u10dd\u10da\u10dd\u10db\u10d4\u10d3\u10d8", "opening_hours": "Mo-Sa 09:00-18:00; Su off"}}, {"type": "node", "id": 10316797911, "lat": 41.6439243, "lon": 41.6349854, "tags": {"addr:housenumber": "53", "addr:street": "26 \u10db\u10d0\u10d8\u10e1\u10d8\u10e1 \u10e5\u10e3\u10e9\u10d0", "amenity": "dentist", "check_date": "2023-01-09", "contact:email": "vandent@ibox.ru", "contact:facebook": "https://facebook.com/profile.php?id=100062157017564", "contact:phone": "+995 593 222165", "healthcare": "dentist", "name": "\u10d5\u10d0\u10dc\u10d3\u10d4\u10dc\u10e2\u10d8", "name:en": "VanDent", "name:ka": "\u10d5\u10d0\u10dc\u10d3\u10d4\u10dc\u10e2\u10d8"}}, {"type": "node", "id": 10378059759, "lat": 41.6400209, "lon": 41.6332135}, {"type": "node", "id": 10542855340, "lat": 41.644084, "lon": 41.6363612, "tags": {"amenity": "dentist", "check_date": "2023-01-12", "healthcare": "dentist"}}, {"type": "node", "id": 10564992746, "lat": 41.6580623, "lon": 41.6845423, "tags": {"amenity": "dentist", "check_date": "2023-01-18", "healthcare": "dentist"}}, {"type": "node", "id": 10565851291, "lat": 41.6590135, "lon": 41.6795048}, {"type": "node", "id": 10585079756, "lat": 41.6262819, "lon": 41.621861, "tags": {"amenity": "dentist"}}, {"type": "node", "id": 10594697787, "lat": 41.6367396, "lon": 41.6707028}, {"type": "node", "id": 10598945797, "lat": 41.6314419, "lon": 41.6289632, "tags": {"amenity": "dentist", "check_date": "2023-02-01", "healthcare": "dentist", "name": "\u10d3\u10d4\u10dc\u10e2\u10d0 \u10da\u10e3\u10d9\u10e1\u10d8", "name:en": "Denta Lux", "name:ka": "\u10d3\u10d4\u10dc\u10e2\u10d0 \u10da\u10e3\u10d9\u10e1\u10d8", "wheelchair": "no"}}, {"type": "node", "id": 10612003849, "lat": 41.7207352, "lon": 41.7329755}, {"type": "node", "id": 10612003850, "lat": 41.7205871, "lon": 41.7330399}, {"type": "node", "id": 10612003851, "lat": 41.7207052, "lon": 41.7331794}, {"type": "node", "id": 10612003852, "lat": 41.7208273, "lon": 41.7332277}, {"type": "node", "id": 10612003853, "lat": 41.7209915, "lon": 41.733233}, {"type": "node", "id": 10612003854, "lat": 41.7209254, "lon": 41.7332518}, {"type": "node", "id": 10612003855, "lat": 41.7210595, "lon": 41.7331848}, {"type": "node", "id": 10612003856, "lat": 41.7210435, "lon": 41.733115}, {"type": "node", "id": 10652147965, "lat": 41.5919836, "lon": 41.6469764}, {"type": "node", "id": 10652147966, "lat": 41.5923475, "lon": 41.6465772}, {"type": "node", "id": 10652147967, "lat": 41.5922186, "lon": 41.646367}, {"type": "node", "id": 10652147968, "lat": 41.5918283, "lon": 41.6471467}, {"type": "node", "id": 10652147969, "lat": 41.5919638, "lon": 41.6473676}, {"type": "node", "id": 10652147970, "lat": 41.5917934, "lon": 41.6475545}, {"type": "node", "id": 10652147971, "lat": 41.5918878, "lon": 41.6477083}, {"type": "node", "id": 10652147972, "lat": 41.5921541, "lon": 41.6474163}, {"type": "node", "id": 10652147973, "lat": 41.5921178, "lon": 41.647357}, {"type": "node", "id": 10652147974, "lat": 41.5921771, "lon": 41.6472918}, {"type": "node", "id": 10690833132, "lat": 41.6386847, "lon": 41.6698734, "tags": {"amenity": "clinic", "check_date": "2023-02-24", "healthcare": "clinic"}}, {"type": "node", "id": 10711170448, "lat": 41.6399883, "lon": 41.6641968}, {"type": "node", "id": 10711170475, "lat": 41.6397963, "lon": 41.6641461}, {"type": "node", "id": 10711170494, "lat": 41.6403494, "lon": 41.6644647}, {"type": "node", "id": 10720935329, "lat": 41.6405059, "lon": 41.6230249, "tags": {"amenity": "clinic", "check_date": "2023-03-08", "healthcare": "clinic", "name": "\u10d7\u10d8\u10dc\u10d0 \u10ea\u10d8\u10dc\u10ea\u10d0\u10eb\u10d8\u10e1 \u10d9\u10da\u10d8\u10dc\u10d8\u10d9\u10d0", "name:en": "Tina Tsintsadze Clinic"}}, {"type": "node", "id": 10726885827, "lat": 41.9193933, "lon": 42.0082131}, {"type": "node", "id": 10726885828, "lat": 41.9189163, "lon": 42.0079851}, {"type": "node", "id": 10726885829, "lat": 41.919202, "lon": 42.0065388}, {"type": "node", "id": 10726885914, "lat": 41.9196966, "lon": 42.0066252}, {"type": "node", "id": 10739683205, "lat": 41.6362592, "lon": 41.6711656}, {"type": "node", "id": 10778001023, "lat": 41.6266418, "lon": 41.6220635, "tags": {"amenity": "clinic", "check_date": "2023-07-21", "name": "\u10db\u10d4\u10d6\u10e6\u10d5\u10d0\u10e3\u10e0\u10d7\u10d0 \u10e1\u10d0\u10db\u10d4\u10d3\u10d8\u10ea\u10d8\u10dc\u10dd \u10ea\u10d4\u10dc\u10e2\u10e0\u10d8", "name:en": "Georgia seaman's medical centre", "name:ka": "\u10db\u10d4\u10d6\u10e6\u10d5\u10d0\u10e3\u10e0\u10d7\u10d0 \u10e1\u10d0\u10db\u10d4\u10d3\u10d8\u10ea\u10d8\u10dc\u10dd \u10ea\u10d4\u10dc\u10e2\u10e0\u10d8"}}, {"type": "node", "id": 10778415479, "lat": 41.8060471, "lon": 41.7776663}, {"type": "node", "id": 10778415481, "lat": 41.8053127, "lon": 41.7771724}, {"type": "node", "id": 10778427519, "lat": 41.8085099, "lon": 41.7729616}, {"type": "node", "id": 10778427522, "lat": 41.8090324, "lon": 41.7740868}, {"type": "node", "id": 10778427523, "lat": 41.8091507, "lon": 41.7730748}, {"type": "node", "id": 10778427524, "lat": 41.808393, "lon": 41.7739717}, {"type": "node", "id": 10778427525, "lat": 41.8094116, "lon": 41.7742304}, {"type": "node", "id": 10778427526, "lat": 41.8095297, "lon": 41.7731157}, {"type": "node", "id": 10778427527, "lat": 41.8113799, "lon": 41.7734076}, {"type": "node", "id": 10778427528, "lat": 41.8112611, "lon": 41.7746113}, {"type": "node", "id": 10779606825, "lat": 41.8186733, "lon": 41.7746884, "tags": {"addr:housenumber": "104", "addr:street": "\u10d3\u10d0\u10d5\u10d8\u10d7 \u10d0\u10e6\u10db\u10d0\u10e8\u10d4\u10dc\u10d4\u10d1\u10da\u10d8\u10e1 \u10d2\u10d0\u10db\u10d6\u10d8\u10e0\u10d8", "amenity": "dentist", "check_date": "2023-04-02", "healthcare": "dentist", "name": "E&G", "wheelchair": "yes"}}, {"type": "node", "id": 10779618740, "lat": 41.8133831, "lon": 41.775955, "tags": {"amenity": "veterinary", "check_date": "2023-04-02", "opening_hours": "Mo-Fr 11:00-19:00; Sa-Su off"}}, {"type": "node", "id": 10792843975, "lat": 41.8227865, "lon": 41.7762706, "tags": {"amenity": "clinic", "check_date": "2023-04-07", "healthcare": "clinic"}}, {"type": "node", "id": 10792843989, "lat": 41.8221152, "lon": 41.7784141, "tags": {"amenity": "clinic", "check_date": "2023-04-07", "healthcare": "clinic"}}, {"type": "node", "id": 10906021514, "lat": 41.8346146, "lon": 41.7794488, "tags": {"amenity": "dentist", "healthcare": "dentist"}}, {"type": "node", "id": 11020058003, "lat": 41.6400729, "lon": 41.6255009, "tags": {"amenity": "dentist", "check_date": "2023-07-02", "healthcare": "dentist"}}, {"type": "node", "id": 11122018324, "lat": 41.6161597, "lon": 41.6246237}, {"type": "node", "id": 11122018325, "lat": 41.616265, "lon": 41.6245734}, {"type": "node", "id": 11122018330, "lat": 41.6165713, "lon": 41.6242716}, {"type": "node", "id": 11177192485, "lat": 41.642859, "lon": 41.6328584, "tags": {"amenity": "dentist", "check_date": "2023-09-08", "healthcare": "dentist", "name": "\u10d8\u10dc\u10dc\u10dd", "name:en": "Inno", "name:ka": "\u10d8\u10dc\u10dc\u10dd"}}, {"type": "node", "id": 11335253381, "lat": 41.6479847, "lon": 41.6687585}, {"type": "node", "id": 11335253382, "lat": 41.6480932, "lon": 41.6689107}, {"type": "node", "id": 11619234600, "lat": 41.6591284, "lon": 41.6796251}, {"type": "node", "id": 11619234601, "lat": 41.6592476, "lon": 41.679794}, {"type": "node", "id": 11619234602, "lat": 41.6592626, "lon": 41.6799241}, {"type": "node", "id": 11619234603, "lat": 41.6587026, "lon": 41.6806711}, {"type": "node", "id": 11619234604, "lat": 41.658417, "lon": 41.6802795}, {"type": "way", "id": 296476438, "nodes": [3002696984, 3002696979, 3002696969, 3002696971, 3002696975, 3002696974, 3002696977, 3002696980, 3002696985, 3002696981, 3002696983, 3002696982, 3002696984], "tags": {"addr2:street": "26 \u10db\u10d0\u10d8\u10e1\u10d8\u10e1 \u10e5\u10e3\u10e9\u10d0", "addr2:street:en": "26 May Street", "addr:housenumber": "39", "addr:housenumber2": "3", "addr:street": "\u10e8\u10dd\u10d7\u10d0 \u10e0\u10e3\u10e1\u10d7\u10d0\u10d5\u10d4\u10da\u10d8\u10e1 \u10e5\u10e3\u10e9\u10d0", "addr:street:en": "Shota Rustaveli Street", "amenity": "hospital", "building": "yes", "building:levels": "2", "check_date": "2022-10-02", "healthcare": "hospital", "name": "\u10d0\u10ed\u10d0\u10e0\u10d8\u10e1 \u10e0\u10d4\u10e1\u10de\u10e3\u10d1\u10da\u10d8\u10d9\u10d8\u10e1 \u10d1\u10d0\u10d7\u10e3\u10db\u10d8\u10e1 \u10e9\u10d0\u10e0\u10d9\u10d5\u10d8\u10d0\u10dc\u10d8\u10e1 \u10e1\u10d0\u10ee\u10d4\u10da\u10dd\u10d1\u10d8\u10e1 \u10e1\u10d0\u10db\u10e8\u10dd\u10d1\u10d8\u10d0\u10e0\u10dd \u10e1\u10d0\u10ee\u10da\u10d8", "name:en": "Charkvian Maternity Hospital of Batumi, Republic of Adjara", "name:ka": "\u10d0\u10ed\u10d0\u10e0\u10d8\u10e1 \u10e0\u10d4\u10e1\u10de\u10e3\u10d1\u10da\u10d8\u10d9\u10d8\u10e1 \u10d1\u10d0\u10d7\u10e3\u10db\u10d8\u10e1 \u10e9\u10d0\u10e0\u10d9\u10d5\u10d8\u10d0\u10dc\u10d8\u10e1 \u10e1\u10d0\u10ee\u10d4\u10da\u10dd\u10d1\u10d8\u10e1 \u10e1\u10d0\u10db\u10e8\u10dd\u10d1\u10d8\u10d0\u10e0\u10dd \u10e1\u10d0\u10ee\u10da\u10d8", "name:ru": "\u0420\u043e\u0434\u0438\u043b\u044c\u043d\u044b\u0439 \u0434\u043e\u043c \u0427\u0430\u0440\u043a\u0432\u0438\u0430\u043d\u0438 \u0432 \u0411\u0430\u0442\u0443\u043c\u0438, \u0420\u0435\u0441\u043f\u0443\u0431\u043b\u0438\u043a\u0430 \u0410\u0434\u0436\u0430\u0440\u0438\u044f", "operator:type": "government"}}, {"type": "way", "id": 299439624, "nodes": [3034259341, 10612003856, 10612003855, 10612003853, 10612003854, 3034300835, 10612003852, 10612003851, 10612003850, 3034291835, 10612003849, 3034259943, 3034259341], "tags": {"addr:housenumber": "40", "addr:street": "\u10d7\u10d0\u10db\u10d0\u10e0 \u10db\u10d4\u10e4\u10d8\u10e1 \u10e5\u10e3\u10e9\u10d0", "amenity": "clinic", "building": "yes", "building:levels": "2", "check_date": "2023-02-06", "name": "\u10e9\u10d0\u10e5\u10d5\u10d8\u10e1 \u10e1\u10d0\u10db\u10d4\u10d3\u10d8\u10ea\u10d8\u10dc\u10dd \u10ea\u10d4\u10dc\u10e2\u10e0\u10d8", "name:en": "Chakvi Medical Center", "name:ka": "\u10e9\u10d0\u10e5\u10d5\u10d8\u10e1 \u10e1\u10d0\u10db\u10d4\u10d3\u10d8\u10ea\u10d8\u10dc\u10dd \u10ea\u10d4\u10dc\u10e2\u10e0\u10d8", "name:ru": "\u041c\u0435\u0434\u0438\u0446\u0438\u043d\u0441\u043a\u0438\u0439 \u0426\u0435\u043d\u0442\u0440"}}, {"type": "way", "id": 322873995, "nodes": [3296642527, 10210293702, 10210293701, 4126446396, 10210293703, 4126445672, 3296642528, 3296642529, 3296642530, 3296642533, 3296642534, 3296642535, 10210293705, 10210293704, 3296642536, 3296642527], "tags": {"addr:housenumber": "118", "addr:street": "\u10d0\u10da\u10d4\u10e5\u10e1\u10d0\u10dc\u10d3\u10e0\u10d4 \u10de\u10e3\u10e8\u10d9\u10d8\u10dc\u10d8\u10e1 \u10e5\u10e3\u10e9\u10d0", "amenity": "hospital", "building": "hospital", "building:levels": "3", "contact:email": "info@medcenter.ge", "contact:facebook": "https://facebook.com/medcenter.ge", "contact:linkedin": "https://linkedin.com/in/medcenter-ge-5b979912a", "contact:phone": "+995 596 226060", "contact:website": "http://medcenter.ge", "contact:youtube": "https://youtube.com/channel/UCnlxc9CWUeFNihh6LlT3Ubg", "healthcare": "hospital", "healthcare:speciality": "oncology", "name": "\u10db\u10d4\u10d3\u10ea\u10d4\u10dc\u10e2\u10e0\u10d8", "name:en": "MedCenter", "name:ka": "\u10db\u10d4\u10d3\u10ea\u10d4\u10dc\u10e2\u10e0\u10d8", "name:ru": "\u041c\u0435\u0434\u0446\u0435\u043d\u0442\u0440", "operator:type": "private"}}, {"type": "way", "id": 323040392, "nodes": [3298398094, 3298398095, 3298398096, 5161741021, 5161741022, 3298398097, 3298398098, 3298398099, 3298398100, 3298398101, 3298398094], "tags": {"addr:housenumber": "2\u10d0", "addr:street": "\u10d2\u10d0\u10da\u10d0\u10d9\u10e2\u10d8\u10dd\u10dc \u10e2\u10d0\u10d1\u10d8\u10eb\u10d8\u10e1 \u10e5\u10e3\u10e9\u10d0", "amenity": "clinic", "building": "hospital", "building:levels": "3", "name": "\u10de\u10dd\u10da\u10d8\u10d9\u10da\u10d8\u10dc\u10d8\u10d9\u10d0 #4", "name:en": "Polyclinic #4", "name:ka": "\u10de\u10dd\u10da\u10d8\u10d9\u10da\u10d8\u10dc\u10d8\u10d9\u10d0 #4", "name:ru": "\u041f\u043e\u043b\u0438\u043a\u043b\u0438\u043d\u0438\u043a\u0430 \u2116 4"}}, {"type": "way", "id": 409297905, "nodes": [4112079456, 10222371125, 10222371128, 4112079464, 10222371134, 10222371133, 10222371129, 10222371132, 10222371131, 10222371130, 10222371135, 10222371136, 4112079470, 4112079462, 4112079459, 4112080354, 4112080352, 4112079458, 4112079456], "tags": {"addr:city": "\u10d1\u10d0\u10d7\u10e3\u10db\u10d8", "addr:country": "GE", "addr:housenumber": "125", "addr:postcode": "6000", "addr:street": "\u10de\u10d4\u10e2\u10e0\u10d4 \u10d1\u10d0\u10d2\u10e0\u10d0\u10e2\u10d8\u10dd\u10dc\u10d8\u10e1 \u10e5\u10e3\u10e9\u10d0", "amenity": "hospital", "building": "hospital", "building:levels": "6", "contact:facebook": "https://facebook.com/ReferralHospitalBAH", "contact:phone": "+995 322 600600", "contact:website": "https://evexhospitals.ge/ka/network/batumis-referaluri-hospitali/99", "healthcare": "hospital", "name": "\u10d1\u10d0\u10d7\u10e3\u10db\u10d8\u10e1 \u10e0\u10d4\u10e4\u10d4\u10e0\u10d0\u10da\u10e3\u10e0\u10d8 \u10e1\u10d0\u10d0\u10d5\u10d0\u10d3\u10db\u10e7\u10dd\u10e4\u10dd", "name:en": "Batumi Referral Hospital", "name:ka": "\u10d1\u10d0\u10d7\u10e3\u10db\u10d8\u10e1 \u10e0\u10d4\u10e4\u10d4\u10e0\u10d0\u10da\u10e3\u10e0\u10d8 \u10e1\u10d0\u10d0\u10d5\u10d0\u10d3\u10db\u10e7\u10dd\u10e4\u10dd", "name:ru": "\u0411\u0430\u0442\u0443\u043c\u0441\u043a\u0438\u0439 \u0440\u0435\u0444\u0435\u0440\u0430\u043b\u044c\u043d\u044b\u0439 \u0433\u043e\u0441\u043f\u0438\u0442\u0430\u043b\u044c", "roof:shape": "flat"}}, {"type": "way", "id": 410076098, "nodes": [4119438526, 9812398250, 4119438517, 4119438515, 4119438519, 4119438511, 4119438509, 4119438507, 4119438514, 4119438526], "tags": {"addr:housenumber": "2", "addr:street": "\u10e2\u10d1\u10d4\u10da \u10d0\u10d1\u10e3\u10e1\u10d4\u10e0\u10d8\u10e1\u10eb\u10d8\u10e1 \u10e5\u10e3\u10e9\u10d0", "addr:street:en": "Tbel Abuseridze Street", "amenity": "clinic", "building": "hospital", "building:levels": "2", "check_date": "2022-11-26", "healthcare": "clinic", "name": "\u10e5. \u10d1\u10d0\u10d7\u10e3\u10db\u10d8\u10e1 #1 \u10de\u10dd\u10da\u10d8\u10d9\u10da\u10d8\u10dc\u10d8\u10d9\u10d0", "name:en": "Polyclinic #1 of Batumi", "name:ka": "\u10e5. \u10d1\u10d0\u10d7\u10e3\u10db\u10d8\u10e1 #1 \u10de\u10dd\u10da\u10d8\u10d9\u10da\u10d8\u10dc\u10d8\u10d9\u10d0", "name:ru": "\u0411\u0430\u0442\u0443\u043c\u0441\u043a\u0430\u044f \u043f\u043e\u043b\u0438\u043a\u043b\u0438\u043d\u0438\u043a\u0430 \u21161", "roof:shape": "flat", "wheelchair": "limited"}}, {"type": "way", "id": 410529449, "nodes": [4123431867, 10181383703, 10181383704, 4123431871, 10181383705, 10181383706, 4123431876, 4123431870, 4123431867], "tags": {"addr:housenumber": "154", "addr:street": "\u10d0\u10da\u10d4\u10e5\u10e1\u10d0\u10dc\u10d3\u10e0\u10d4 \u10de\u10e3\u10e8\u10d9\u10d8\u10dc\u10d8\u10e1 \u10e5\u10e3\u10e9\u10d0", "amenity": "hospital", "building": "hospital", "building:levels": "2", "check_date": "2022-11-13", "emergency": "yes", "healthcare": "doctor", "name": "\u10d1\u10d0\u10d7\u10e3\u10db\u10d8\u10e1 \u10e1\u10d0\u10e1\u10ec\u10e0\u10d0\u10e4\u10dd \u10e1\u10d0\u10db\u10d4\u10d3\u10d8\u10ec\u10d8\u10dc\u10dd \u10d3\u10d0\u10ee\u10db\u10d0\u10e0\u10d4\u10d1\u10d8\u10e1 \u10ec\u10d4\u10dc\u10d7\u10e0\u10d8", "name:en": "Batumi emergency medical aid center", "name:ka": "\u10d1\u10d0\u10d7\u10e3\u10db\u10d8\u10e1 \u10e1\u10d0\u10e1\u10ec\u10e0\u10d0\u10e4\u10dd \u10e1\u10d0\u10db\u10d4\u10d3\u10d8\u10ec\u10d8\u10dc\u10dd \u10d3\u10d0\u10ee\u10db\u10d0\u10e0\u10d4\u10d1\u10d8\u10e1 \u10ec\u10d4\u10dc\u10d7\u10e0\u10d8", "name:ru": "\u0411\u0430\u0442\u0443\u043c\u0441\u043a\u0438\u0439 \u0446\u0435\u043d\u0442\u0440 \u0441\u043a\u043e\u0440\u043e\u0439 \u043c\u0435\u0434\u0438\u0446\u0438\u043d\u0441\u043a\u043e\u0439 \u043f\u043e\u043c\u043e\u0449\u0438"}}, {"type": "way", "id": 418053526, "nodes": [4185078686, 4185078668, 4185078665, 9969160835, 10378059759, 4185078686], "tags": {"addr:housenumber": "79/81", "addr:street": "\u10d2\u10d8\u10dd\u10e0\u10d2\u10d8 \u10d1\u10e0\u10ec\u10e7\u10d8\u10dc\u10d5\u10d0\u10da\u10d4\u10e1 \u10e5\u10e3\u10e9\u10d0", "amenity": "clinic", "building": "hospital", "building:levels": "7", "building:material": "plaster", "check_date": "2023-01-09", "contact:facebook": "https://www.facebook.com/khozrevanidze.ge", "contact:instagram": "https://www.instagram.com/khozrevanidzes_clinic", "contact:website": "https://www.khozrevanidze.ge/", "healthcare": "clinic", "name": "\u10ee\u10dd\u10d6\u10e0\u10d4\u10d5\u10d0\u10dc\u10d8\u10eb\u10d8\u10e1 \u10d9\u10da\u10d8\u10dc\u10d8\u10d9\u10d0", "name:en": "Khozrevanidze's clinic", "name:ka": "\u10ee\u10dd\u10d6\u10e0\u10d4\u10d5\u10d0\u10dc\u10d8\u10eb\u10d8\u10e1 \u10d9\u10da\u10d8\u10dc\u10d8\u10d9\u10d0", "name:ru": "\u041a\u043b\u0438\u043d\u0438\u043a\u0430 \u0425\u043e\u0437\u0440\u0435\u0432\u0430\u043d\u0438\u0434\u0437\u0435", "roof:shape": "flat"}}, {"type": "way", "id": 472472274, "nodes": [10778427524, 10778427519, 10778427523, 10778427522, 10778427524], "tags": {"amenity": "hospital", "healthcare": "hospital", "name": "\u10d1\u10d0\u10d5\u10e8\u10d5\u10d7\u10d0 \u10e1\u10d0\u10d0\u10d5\u10d0\u10d3\u10db\u10e7\u10dd\u10e4\u10dd", "name:en": "Pediatric Hospital"}}, {"type": "way", "id": 472857216, "nodes": [10778427527, 10778427528, 10778427525, 10778427526, 10778427527], "tags": {"amenity": "hospital", "healthcare": "hospital"}}, {"type": "way", "id": 541500981, "nodes": [5236156421, 5236156422, 10226376720, 10226376719, 10226376718, 5236156423, 10226376717, 10226372616, 10226372615, 10226372614, 5236156424, 10226372613, 5236156421], "tags": {"addr:housenumber": "163", "addr:street": "\u10d5\u10d0\u10ee\u10e2\u10d0\u10dc\u10d2 \u10d2\u10dd\u10e0\u10d2\u10d0\u10e1\u10d0\u10da\u10d8\u10e1 \u10e5\u10e3\u10e9\u10d0", "amenity": "dentist", "building": "clinic", "building:levels": "5", "check_date": "2022-10-14", "contact:email": "info@rogo.ge", "contact:phone": "+995 551 900117", "contact:website": "https://rogo.ge", "healthcare": "dentist", "name": "\u10e0\u10dd\u10d2\u10dd", "name:en": "Rogo", "name:ka": "\u10e0\u10dd\u10d2\u10dd", "name:ru": "\u0420\u043e\u0433\u043e", "official_name:en": "Center of Innovative Dentistry and Medicine Rogo", "official_name:ka": "\u10d8\u10dc\u10dd\u10d5\u10d0\u10ea\u10d8\u10e3\u10e0\u10d8 \u10e1\u10e2\u10dd\u10db\u10d0\u10e2\u10dd\u10da\u10dd\u10d2\u10d8\u10d8\u10e1\u10d0 \u10d3\u10d0 \u10d6\u10dd\u10d2\u10d0\u10d3\u10d8 \u10db\u10d4\u10d3\u10d8\u10ea\u10d8\u10dc\u10d8\u10e1\n\u10ea\u10d4\u10dc\u10e2\u10e0\u10d8 \u10e0\u10dd\u10d2\u10dd", "official_name:ru": "\u0426\u0435\u043d\u0442\u0440 \u0438\u043d\u043d\u043e\u0432\u0430\u0446\u0438\u043e\u043d\u043d\u043e\u0439 \u0441\u0442\u043e\u043c\u0430\u0442\u043e\u043b\u043e\u0433\u0438\u0439 \u0438 \u043e\u0431\u0448\u0435\u0439 \u043c\u0435\u0434\u0438\u0446\u0438\u043d\u044b \u0420\u043e\u0433\u043e", "roof:levels": "0"}}, {"type": "way", "id": 741576395, "nodes": [1430578095, 9812398260, 10211612927, 4119438300, 10211607355, 10211612928, 10211612929, 4119438489, 10211607356, 10211607357, 10211607358, 10211607359, 4119438534, 10211612934, 10211607348, 1430578095], "tags": {"amenity": "hospital", "check_date": "2022-11-13", "contact:email": "info@brchospital.ge", "contact:facebook": "https://facebook.com/BatumiRepublicanHospital", "emergency": "yes", "healthcare": "hospital", "name": "\u10d1\u10d0\u10d7\u10e3\u10db\u10d8\u10e1 \u10e0\u10d4\u10e1\u10de\u10e3\u10d1\u10da\u10d8\u10d9\u10e3\u10e0\u10d8 \u10e1\u10d0\u10d0\u10d5\u10d0\u10d3\u10db\u10e7\u10dd\u10e4\u10dd", "name:en": "Batumi Republic Hospital", "name:ka": "\u10d1\u10d0\u10d7\u10e3\u10db\u10d8\u10e1 \u10e0\u10d4\u10e1\u10de\u10e3\u10d1\u10da\u10d8\u10d9\u10e3\u10e0\u10d8 \u10e1\u10d0\u10d0\u10d5\u10d0\u10d3\u10db\u10e7\u10dd\u10e4\u10dd", "name:ru": "\u0426\u0435\u043d\u0442\u0440\u0430\u043b\u044c\u043d\u0430\u044f \u0440\u0435\u0441\u043f\u0443\u0431\u043b\u0438\u043a\u0430\u043d\u0441\u043a\u0430\u044f \u0431\u043e\u043b\u044c\u043d\u0438\u0446\u0430", "operator:type": "public"}}, {"type": "way", "id": 785978891, "nodes": [7347329833, 11335253381, 11335253382, 7347329834, 7347329835, 7347329836, 7347329837, 7347329838, 7347329839, 7347329840, 7347329841, 7347329842, 7356734558, 7356734561, 7356734560, 7347329843, 7347329833], "tags": {"amenity": "hospital", "barrier": "wall", "healthcare": "hospital", "name": "\u10d8\u10dc\u10e4\u10d4\u10e5\u10ea\u10d8\u10e3\u10e0\u10d8 \u10de\u10d0\u10d7\u10dd\u10da\u10dd\u10d2\u10d8\u10d8\u10e1, \u10e8\u10d8\u10d3\u10e1\u10d8\u10e1 \u10d3\u10d0 \u10e2\u10e3\u10d1\u10d4\u10e0\u10d9\u10e3\u10da\u10dd\u10d6\u10d8\u10e1 \u10e0\u10d4\u10d2\u10d8\u10dd\u10dc\u10e3\u10da\u10d8 \u10ea\u10d4\u10dc\u10e2\u10e0\u10d8", "name:en": "Regional Center of Infectious Pathology, AIDS and Tuberculosis", "name:ka": "\u10d8\u10dc\u10e4\u10d4\u10e5\u10ea\u10d8\u10e3\u10e0\u10d8 \u10de\u10d0\u10d7\u10dd\u10da\u10dd\u10d2\u10d8\u10d8\u10e1, \u10e8\u10d8\u10d3\u10e1\u10d8\u10e1 \u10d3\u10d0 \u10e2\u10e3\u10d1\u10d4\u10e0\u10d9\u10e3\u10da\u10dd\u10d6\u10d8\u10e1 \u10e0\u10d4\u10d2\u10d8\u10dd\u10dc\u10e3\u10da\u10d8 \u10ea\u10d4\u10dc\u10e2\u10e0\u10d8", "name:ru": "\u041e\u0431\u043b\u0430\u0441\u0442\u043d\u043e\u0439 \u0446\u0435\u043d\u0442\u0440 \u0438\u043d\u0444\u0435\u043a\u0446\u0438\u043e\u043d\u043d\u043e\u0439 \u043f\u0430\u0442\u043e\u043b\u043e\u0433\u0438\u0438, \u0421\u041f\u0418\u0414\u0430 \u0438 \u0442\u0443\u0431\u0435\u0440\u043a\u0443\u043b\u0435\u0437\u0430"}}, {"type": "way", "id": 791326185, "nodes": [7397763588, 8786376374, 10711170475, 10711170448, 7397763590, 8786376363, 10711170494, 7397763591, 7397763592, 7397763593, 7397763588], "tags": {"amenity": "hospital", "check_date": "2023-02-24", "healthcare": "hospital", "name": "\u10e5\u10d8\u10e0\u10e3\u10e0\u10d2\u10d8\u10d8\u10e1 \u10d4\u10e0\u10dd\u10d5\u10dc\u10e3\u10da\u10d8 \u10ea\u10d4\u10dc\u10e2\u10e0\u10d8", "name:en": "National Center for Surgery", "name:ka": "\u10e5\u10d8\u10e0\u10e3\u10e0\u10d2\u10d8\u10d8\u10e1 \u10d4\u10e0\u10dd\u10d5\u10dc\u10e3\u10da\u10d8 \u10ea\u10d4\u10dc\u10e2\u10e0\u10d8"}}, {"type": "way", "id": 944105967, "nodes": [6331653596, 8741136153, 8741136060, 10251668644, 10251668645, 10251668642, 10251668643, 10251668657, 8741136061, 10251668649, 10251668646, 10251668648, 8741136054, 7244716174, 1081851579, 7244716173, 6331653599, 8741136039, 6331653598, 6331653597, 6331653596], "tags": {"amenity": "hospital", "check_date": "2023-01-04", "emergency": "yes", "healthcare": "hospital", "name": "\u10d1\u10d0\u10e3\u00a0\u10e1\u10d0\u10d4\u10e0\u10d7\u10d0\u10e8\u10dd\u10e0\u10d8\u10e1\u10dd\u00a0\u10f0\u10dd\u10e1\u10de\u10d8\u10e2\u10d0\u10da\u10d8", "name:en": "BAU International Hospital", "name:ka": "\u10d1\u10d0\u10e3\u00a0\u10e1\u10d0\u10d4\u10e0\u10d7\u10d0\u10e8\u10dd\u10e0\u10d8\u10e1\u10dd\u00a0\u10f0\u10dd\u10e1\u10de\u10d8\u10e2\u10d0\u10da\u10d8", "phone": "+995422213333", "website": "https://bih.ge/"}}, {"type": "way", "id": 945073839, "nodes": [8749321734, 8749321735, 8749321736, 8749321737, 8749321745, 8794933042, 8749321726, 8749321769, 8749321738, 11122018324, 11122018325, 11122018330, 8749321734], "tags": {"amenity": "hospital", "check_date": "2023-02-21", "healthcare": "hospital", "name": "\u10d1\u10d0\u10d7\u10e3\u10db\u10d8\u10e1 \u10e1\u10d0\u10db\u10d4\u10d3\u10d8\u10ea\u10d8\u10dc\u10dd \u10ea\u10d4\u10dc\u10e2\u10e0\u10d8", "name:en": "Batumi Medical Center", "name:ka": "\u10d1\u10d0\u10d7\u10e3\u10db\u10d8\u10e1 \u10e1\u10d0\u10db\u10d4\u10d3\u10d8\u10ea\u10d8\u10dc\u10dd \u10ea\u10d4\u10dc\u10e2\u10e0\u10d8"}}, {"type": "way", "id": 953780043, "nodes": [7257350802, 10594697787, 1399606410, 8827755467, 8781211078, 7440342130, 7440342128, 8827755473, 8827812727, 1857029318, 10739683205, 7257350802], "tags": {"addr:housenumber": "17", "addr:street": "\u10d7\u10d0\u10d1\u10e3\u10d9\u10d0\u10e8\u10d5\u10d8\u10da\u10d8 \u10e0\u10d4\u10d6\u10dd\u10e1 \u10e5\u10e3\u10e9\u10d0", "amenity": "hospital", "healthcare": "hospital", "name": "\u10d8\u10dc\u10e4\u10d4\u10e5\u10ea\u10d8\u10e3\u10e0\u10d8 \u10de\u10d0\u10d7\u10dd\u10da\u10dd\u10d2\u10d8\u10d8\u10e1, \u10e8\u10d8\u10d3\u10e1\u10d8\u10e1 \u10d3\u10d0 \u10e2\u10e3\u10d1\u10d4\u10e0\u10d9\u10e3\u10da\u10dd\u10d6\u10d8\u10e1 \u10ea\u10d4\u10dc\u10e2\u10e0\u10d8", "source": "JumpStart International"}}, {"type": "way", "id": 1016263753, "nodes": [10778415481, 9373673797, 9373673798, 6738320685, 10778415479, 10778415481], "tags": {"addr:housenumber": "18", "addr:street": "Memes Abashidze str", "amenity": "hospital", "healthcare": "hospital", "name": "\u10e5\u10dd\u10d1\u10e3\u10da\u10d4\u10d7\u10d8\u10e1 \u10e0\u10d4\u10d2\u10d8\u10dd\u10dc\u10d0\u10da\u10e3\u10e0\u10d8 \u10e1\u10d0\u10d0\u10d5\u10d0\u10db\u10e7\u10dd\u10e4\u10dd", "name:en": "Kobuleti Regional Hospital", "phone": "0426261444"}}, {"type": "way", "id": 1071559345, "nodes": [9833106077, 9833086776, 9833106079, 9833106060, 9833106061, 9833106062, 9833106078, 9833106077], "tags": {"amenity": "hospital", "healthcare": "hospital"}}, {"type": "way", "id": 1144407846, "nodes": [10652147965, 10652147974, 10652147973, 10652147972, 10652147971, 10652147970, 10652147969, 10652147968, 2371166861, 2371166859, 2371166865, 2371166863, 2371166872, 10652147967, 10652147966, 2371166885, 10652147965], "tags": {"addr:housenumber": "237", "addr:street": "\u10e4\u10e0\u10d8\u10d3\u10dd\u10dc \u10ee\u10d0\u10da\u10d5\u10d0\u10e8\u10d8\u10e1 \u10d2\u10d0\u10db\u10d6\u10d8\u10e0\u10d8", "amenity": "hospital", "building": "hospital", "check_date": "2023-04-16", "email": "info@medina.ge", "name": "\u10d8\u10e0\u10d8\u10e1 \u10d1\u10dd\u10e0\u10e9\u10d0\u10e8\u10d5\u10d8\u10da\u10d8\u10e1 \u10e1\u10d0\u10ee\u10d4\u10da\u10dd\u10d1\u10d8\u10e1 \u10ef\u10d0\u10dc\u10db\u10e0\u10d7\u10d4\u10da\u10dd\u10d1\u10d8\u10e1 \u10ea\u10d4\u10dc\u10e2\u10e0\u10d8 \"\u10db\u10d4\u10d3\u10d8\u10dc\u10d0\"", "name:en": "Iris Borchashvili Health Center \"Medina\"", "name:ka": "\u10d8\u10e0\u10d8\u10e1 \u10d1\u10dd\u10e0\u10e9\u10d0\u10e8\u10d5\u10d8\u10da\u10d8\u10e1 \u10e1\u10d0\u10ee\u10d4\u10da\u10dd\u10d1\u10d8\u10e1 \u10ef\u10d0\u10dc\u10db\u10e0\u10d7\u10d4\u10da\u10dd\u10d1\u10d8\u10e1 \u10ea\u10d4\u10dc\u10e2\u10e0\u10d8 \"\u10db\u10d4\u10d3\u10d8\u10dc\u10d0\"", "phone": "+995422222220", "website": "https://medina.ge"}}, {"type": "way", "id": 1153373050, "nodes": [10726885829, 10726885828, 10726885827, 10726885914, 10726885829], "tags": {"amenity": "hospital", "healthcare": "hospital"}}, {"type": "way", "id": 1249987153, "nodes": [11619234603, 11619234602, 11619234601, 11619234600, 10565851291, 11619234604, 11619234603], "tags": {"amenity": "hospital", "healthcare": "hospital", "name": "\u10d8\u10dc\u10dd\u10d5\u10d0\u10ea\u10d8\u10e3\u10e0\u10d8 \u10db\u10d4\u10d3\u10d8\u10ea\u10d8\u10dc\u10d8\u10e1 \u10e1\u10d0\u10e3\u10dc\u10d8\u10d5\u10d4\u10e0\u10e1\u10d8\u10e2\u10d4\u10e2\u10dd \u10d9\u10da\u10d8\u10dc\u10d8\u10d9\u10d0", "name:en": "University Clinic of Innovative Medicine", "operator": "\u10e8\u10de\u10e1 \"\u10d8\u10dc\u10dd\u10d5\u10d0\u10ea\u10d8\u10e3\u10e0\u10d8 \u10db\u10d4\u10d3\u10d8\u10ea\u10d8\u10dc\u10d8\u10e1 \u10e1\u10d0\u10e3\u10dc\u10d8\u10d5\u10d4\u10e0\u10e1\u10d8\u10e2\u10d4\u10e2\u10dd \u10d9\u10da\u10d8\u10dc\u10d8\u10d9\u10d0\""}}]}